latitude,longitude,prix,surface,pieces,type_bien,code_postal,departement,ville
43.5403693,5.522134,983500,105.0,4.0,Appartement,13100,13,Aix-en-Provence
43.5403693,5.522134,950500,128.0,5.0,Appartement,13100,13,Aix-en-Provence
43.2535086,5.3826154,942100,108.0,4.0,Appartement,13008,13,Marseille
43.5271113,5.4305293,890000,102.0,4.0,Appartement,13090,13,Aix-en-Provence
43.4984433,5.421383,882000,110.4,4.0,Appartement,13080,13,Aix-en-Provence
43.2535086,5.3826154,844600,108.0,4.0,Appartement,13008,13,Marseille
43.2878999,5.3585612,765000,116.0,4.0,Maison,13007,13,Marseille
43.3066116,5.3840371,698000,141.0,4.0,Appartement,13001,13,Marseille
43.5403693,5.522134,660000,93.6,4.0,Appartement,13100,13,Aix-en-Provence
43.5271113,5.4305293,623000,87.7,4.0,Appartement,13090,13,Aix-en-Provence
43.5271113,5.4305293,620000,80.0,3.0,Appartement,13090,13,Aix-en-Provence
43.2535086,5.3826154,590000,118.0,4.0,Appartement,13008,13,Marseille
43.4984433,5.421383,550000,64.2,3.0,Appartement,13080,13,Aix-en-Provence
43.5403693,5.522134,530000,73.0,3.0,Appartement,13100,13,Aix-en-Provence
43.3085865,5.4000614,530000,115.0,4.0,Appartement,13004,13,Marseille
43.5403693,5.522134,505000,65.7,3.0,Appartement,13100,13,Aix-en-Provence
43.2535086,5.3826154,500000,92.0,4.0,Appartement,13008,13,Marseille
43.2878999,5.3585612,488000,92.0,4.0,Appartement,13007,13,Marseille
43.2535086,5.3826154,455800,72.0,3.0,Appartement,13008,13,Marseille
43.5271113,5.4305293,447000,65.9,3.0,Appartement,13090,13,Aix-en-Provence
43.4984433,5.421383,438000,46.2,2.0,Appartement,13080,13,Aix-en-Provence
43.5403693,5.522134,426000,63.0,3.0,Appartement,13100,13,Aix-en-Provence
43.2535086,5.3826154,415000,70.0,3.0,Appartement,13008,13,Marseille
43.2821181,5.4157957,375000,95.0,4.0,Appartement,13010,13,Marseille
43.2524772,5.4138202,369900,63.0,3.0,Appartement,13009,13,Marseille
43.5403693,5.522134,350500,44.0,2.0,Appartement,13100,13,Aix-en-Provence
43.5403693,5.522134,350000,45.2,2.0,Appartement,13100,13,Aix-en-Provence
43.2535086,5.3826154,288700,37.0,2.0,Appartement,13008,13,Marseille
43.3550737,5.3574649,284000,82.0,4.0,Appartement,13015,13,Marseille
43.3413417,5.4360677,274000,77.1,4.0,Appartement,13013,13,Marseille
43.5403693,5.522134,268000,66.0,3.0,Appartement,13100,13,Aix-en-Provence
43.4984433,5.421383,262000,27.2,1.0,Appartement,13080,13,Aix-en-Provence
43.2821181,5.4157957,226000,63.0,3.0,Appartement,13010,13,Marseille
43.2892009,5.381581,225000,75.0,4.0,Appartement,13006,13,Marseille
43.3413417,5.4360677,215100,59.9,3.0,Appartement,13013,13,Marseille
43.5403693,5.522134,1990000,201.0,5.0,Appartement,13100,13,Aix-en-Provence
43.4984433,5.421383,1590000,137.5,6.0,Appartement,13080,13,Aix-en-Provence
43.5271113,5.4305293,1495000,175.0,5.0,Appartement,13090,13,Aix-en-Provence
43.5403693,5.522134,1300000,116.0,4.0,Appartement,13100,13,Aix-en-Provence
43.4984433,5.421383,1134000,155.2,6.0,Maison,13080,13,Aix-en-Provence
43.3550737,5.3574649,193999,50.0,3.0,Appartement,13015,13,Marseille
43.3550737,5.3574649,180000,39.0,1.0,Appartement,13015,13,Marseille
43.3413417,5.4360677,154000,39.1,2.0,Appartement,13013,13,Marseille
43.3550737,5.3574649,152000,42.0,2.0,Appartement,13015,13,Marseille
43.3413417,5.4360677,150000,40.0,2.0,Appartement,13013,13,Marseille
43.3413417,5.4360677,110460,19.0,1.0,Appartement,13013,13,Marseille
47.331844,5.0447381,399000,75.0,4.0,Appartement,21000,21,Dijon
47.331844,5.0447381,339000,94.4,5.0,Appartement,21000,21,Dijon
47.331844,5.0447381,325000,60.0,3.0,Appartement,21000,21,Dijon
47.331844,5.0447381,289000,73.4,4.0,Appartement,21000,21,Dijon
47.331844,5.0447381,267000,63.0,3.0,Appartement,21000,21,Dijon
47.331844,5.0447381,255000,62.6,3.0,Appartement,21000,21,Dijon
47.331844,5.0447381,240000,60.0,3.0,Appartement,21000,21,Dijon
47.331844,5.0447381,221000,58.9,3.0,Appartement,21000,21,Dijon
47.331844,5.0447381,219000,59.0,3.0,Appartement,21000,21,Dijon
47.331844,5.0447381,213000,60.0,3.0,Appartement,21000,21,Dijon
47.331844,5.0447381,204000,62.3,3.0,Appartement,21000,21,Dijon
47.331844,5.0447381,199000,43.0,2.0,Appartement,21000,21,Dijon
47.331844,5.0447381,180000,40.0,2.0,Appartement,21000,21,Dijon
47.331844,5.0447381,179000,40.0,2.0,Appartement,21000,21,Dijon
47.331844,5.0447381,178500,43.0,2.0,Appartement,21000,21,Dijon
47.331844,5.0447381,159500,43.3,2.0,Appartement,21000,21,Dijon
47.331844,5.0447381,159000,45.0,2.0,Appartement,21000,21,Dijon
47.331844,5.0447381,151000,35.3,2.0,Appartement,21000,21,Dijon
47.331844,5.0447381,149000,79.0,3.0,Appartement,21000,21,Dijon
47.331844,5.0447381,139000,38.0,2.0,Appartement,21000,21,Dijon
47.331844,5.0447381,139000,25.0,1.0,Appartement,21000,21,Dijon
47.331844,5.0447381,138500,19.8,1.0,Appartement,21000,21,Dijon
47.331844,5.0447381,123000,25.2,1.0,Appartement,21000,21,Dijon
47.331844,5.0447381,120500,17.2,1.0,Appartement,21000,21,Dijon
47.331844,5.0447381,105000,37.0,2.0,Appartement,21000,21,Dijon
48.4083582,-4.4871141,452000,60.0,3.0,Appartement,29200,29,Brest
48.4083582,-4.4871141,405000,90.0,5.0,Maison,29200,29,Brest
48.4083582,-4.4871141,395000,90.0,4.0,Appartement,29200,29,Brest
48.4083582,-4.4871141,381000,87.5,4.0,Appartement,29200,29,Brest
48.4083582,-4.4871141,360000,75.0,4.0,Appartement,29200,29,Brest
48.4083582,-4.4871141,355243,75.0,4.0,Appartement,29200,29,Brest
48.4083582,-4.4871141,329000,60.0,3.0,Appartement,29200,29,Brest
48.4083582,-4.4871141,290000,62.0,3.0,Appartement,29200,29,Brest
48.4083582,-4.4871141,289000,61.0,3.0,Appartement,29200,29,Brest
48.4083582,-4.4871141,286202,60.0,3.0,Appartement,29200,29,Brest
48.4083582,-4.4871141,282000,63.0,3.0,Appartement,29200,29,Brest
48.4083582,-4.4871141,269000,60.0,3.0,Appartement,29200,29,Brest
48.4083582,-4.4871141,259000,60.9,3.0,Appartement,29200,29,Brest
48.4083582,-4.4871141,250000,40.0,2.0,Appartement,29200,29,Brest
48.4083582,-4.4871141,249000,40.0,2.0,Appartement,29200,29,Brest
48.4083582,-4.4871141,204144,40.0,2.0,Appartement,29200,29,Brest
48.4083582,-4.4871141,204000,42.8,2.0,Appartement,29200,29,Brest
48.4083582,-4.4871141,190000,62.8,3.0,Appartement,29200,29,Brest
48.4083582,-4.4871141,189000,46.0,2.0,Appartement,29200,29,Brest
48.4083582,-4.4871141,183000,38.0,2.0,Appartement,29200,29,Brest
48.4083582,-4.4871141,167000,38.3,2.0,Appartement,29200,29,Brest
48.4083582,-4.4871141,165900,40.7,2.0,Appartement,29200,29,Brest
48.4083582,-4.4871141,155000,40.0,2.0,Appartement,29200,29,Brest
48.4083582,-4.4871141,141000,43.9,2.0,Appartement,29200,29,Brest
48.4083582,-4.4871141,119383,20.1,1.0,Appartement,29200,29,Brest
43.6044303,1.4391951,970000,178.1,8.0,Maison,31000,31,Toulouse
43.6044303,1.4391951,879000,78.0,4.0,Appartement,31000,31,Toulouse
43.6044303,1.4391951,850000,122.0,4.0,Appartement,31000,31,Toulouse
43.5675736,1.3975057,81750,21.7,1.0,Appartement,31100,31,Toulouse
43.6044303,1.4391951,797000,160.0,5.0,Appartement,31000,31,Toulouse
43.6044303,1.4391951,795000,147.6,3.0,Appartement,31000,31,Toulouse
43.6044303,1.4391951,690000,160.0,5.0,Appartement,31000,31,Toulouse
43.6044303,1.4391951,648000,136.1,5.0,Maison,31000,31,Toulouse
43.6044303,1.4391951,499000,60.0,3.0,Appartement,31000,31,Toulouse
43.6044303,1.4391951,489000,108.0,4.0,Appartement,31000,31,Toulouse
43.6044303,1.4391951,419000,110.0,3.0,Appartement,31000,31,Toulouse
43.6036188,1.3886893,400500,102.9,5.0,Appartement,31300,31,Toulouse
43.6044303,1.4391951,380000,105.0,4.0,Appartement,31000,31,Toulouse
43.5652405,1.4728899,369900,88.9,4.0,Appartement,31400,31,Toulouse
43.6044303,1.4391951,339000,78.0,4.0,Appartement,31000,31,Toulouse
43.6044303,1.4391951,314000,61.0,2.0,Appartement,31000,31,Toulouse
43.6044303,1.4391951,299000,55.4,2.0,Appartement,31000,31,Toulouse
43.6044303,1.4391951,250000,53.0,2.0,Appartement,31000,31,Toulouse
43.6044303,1.4391951,239000,56.0,3.0,Appartement,31000,31,Toulouse
43.6044303,1.4391951,233000,36.0,2.0,Appartement,31000,31,Toulouse
43.6044303,1.4391951,230000,52.2,2.0,Appartement,31000,31,Toulouse
43.6044303,1.4391951,1840000,145.0,5.0,Appartement,31000,31,Toulouse
43.6044303,1.4391951,1700000,229.6,5.0,Appartement,31000,31,Toulouse
43.6044303,1.4391951,169000,35.0,2.0,Appartement,31000,31,Toulouse
43.6044303,1.4391951,168500,20.0,1.0,Appartement,31000,31,Toulouse
43.6044303,1.4391951,166000,23.0,2.0,Appartement,31000,31,Toulouse
43.5652405,1.4728899,160000,40.0,2.0,Appartement,31400,31,Toulouse
43.6391219,1.4486548,155000,66.0,3.0,Appartement,31200,31,Toulouse
43.6044303,1.4391951,153500,23.0,1.0,Appartement,31000,31,Toulouse
43.6391219,1.4486548,145600,22.0,2.0,Appartement,31200,31,Toulouse
43.6044303,1.4391951,109000,16.0,1.0,Appartement,31000,31,Toulouse
44.8391049,-0.5814266,790000,92.0,3.0,Appartement,33000,33,Bordeaux
44.8538685,-0.6165877,720000,135.0,5.0,Maison,33200,33,Bordeaux
44.8391049,-0.5814266,650000,132.0,6.0,Appartement,33000,33,Bordeaux
44.8391049,-0.5814266,499900,71.0,3.0,Appartement,33000,33,Bordeaux
44.8391049,-0.5814266,495000,84.0,4.0,Appartement,33000,33,Bordeaux
44.8391049,-0.5814266,483000,89.0,5.0,Appartement,33000,33,Bordeaux
44.8391049,-0.5814266,449000,106.0,4.0,Appartement,33000,33,Bordeaux
44.8391049,-0.5814266,380000,76.0,4.0,Appartement,33000,33,Bordeaux
44.8240407,-0.558956,323533,83.0,4.0,Appartement,33800,33,Bordeaux
44.8391049,-0.5814266,322000,87.0,3.0,Appartement,33000,33,Bordeaux
44.8391049,-0.5814266,319000,67.0,3.0,Appartement,33000,33,Bordeaux
44.8391049,-0.5814266,269900,50.0,2.0,Appartement,33000,33,Bordeaux
44.8391049,-0.5814266,268000,38.0,2.0,Appartement,33000,33,Bordeaux
44.8456834,-0.553098,265000,50.0,2.0,Appartement,33100,33,Bordeaux
44.8829908,-0.5568152,262800,42.0,2.0,Appartement,33300,33,Bordeaux
44.8240407,-0.558956,258123,67.0,3.0,Appartement,33800,33,Bordeaux
44.8538685,-0.6165877,217900,48.0,2.0,Appartement,33200,33,Bordeaux
44.8240407,-0.558956,217418,51.0,2.0,Appartement,33800,33,Bordeaux
44.8391049,-0.5814266,202000,26.0,1.0,Appartement,33000,33,Bordeaux
44.8391049,-0.5814266,200000,34.0,2.0,Appartement,33000,33,Bordeaux
44.8391049,-0.5814266,1365000,216.0,5.0,Maison,33000,33,Bordeaux
44.8829908,-0.5568152,155000,25.0,1.0,Appartement,33300,33,Bordeaux
44.8391049,-0.5814266,140000,25.0,1.0,Appartement,33000,33,Bordeaux
44.8538685,-0.6165877,120589,17.6,1.0,Appartement,33200,33,Bordeaux
43.6147233,3.879268,850000,109.1,4.0,Appartement,34000,34,Montpellier
43.6147233,3.879268,665000,97.0,4.0,Appartement,34000,34,Montpellier
43.6147233,3.879268,590000,95.0,4.0,Appartement,34000,34,Montpellier
43.6147233,3.879268,575000,63.0,3.0,Appartement,34000,34,Montpellier
43.6147233,3.879268,475000,85.0,4.0,Appartement,34000,34,Montpellier
43.6147233,3.879268,460000,73.4,3.0,Appartement,34000,34,Montpellier
43.6147233,3.879268,435800,93.4,5.0,Appartement,34000,34,Montpellier
43.6147233,3.879268,395000,47.0,2.0,Appartement,34000,34,Montpellier
43.6147233,3.879268,340000,65.1,3.0,Appartement,34000,34,Montpellier
43.6147233,3.879268,339000,62.0,3.0,Appartement,34000,34,Montpellier
43.6147233,3.879268,325000,58.0,3.0,Appartement,34000,34,Montpellier
43.6147233,3.879268,322000,63.0,3.0,Appartement,34000,34,Montpellier
43.6147233,3.879268,295000,62.0,3.0,Appartement,34000,34,Montpellier
43.6147233,3.879268,290000,48.0,2.0,Appartement,34000,34,Montpellier
43.6147233,3.879268,290000,32.0,1.0,Appartement,34000,34,Montpellier
43.6147233,3.879268,267000,44.3,2.0,Appartement,34000,34,Montpellier
43.6147233,3.879268,258000,88.0,4.0,Appartement,34000,34,Montpellier
43.6147233,3.879268,250000,65.4,3.0,Appartement,34000,34,Montpellier
43.6147233,3.879268,245000,42.3,2.0,Appartement,34000,34,Montpellier
43.6147233,3.879268,239000,45.0,2.0,Appartement,34000,34,Montpellier
43.6147233,3.879268,237289,60.0,3.0,Appartement,34000,34,Montpellier
43.6147233,3.879268,236000,40.0,2.0,Appartement,34000,34,Montpellier
43.6147233,3.879268,231000,87.4,4.0,Appartement,34000,34,Montpellier
43.6147233,3.879268,227704,56.6,3.0,Appartement,34000,34,Montpellier
43.6147233,3.879268,199000,45.1,2.0,Appartement,34000,34,Montpellier
43.6147233,3.879268,174954,43.0,2.0,Appartement,34000,34,Montpellier
48.1119795,-1.691532,785000,86.0,4.0,Appartement,35000,35,Rennes
48.1119795,-1.691532,762850,199.0,8.0,Appartement,35000,35,Rennes
48.1119795,-1.691532,649900,101.3,4.0,Appartement,35000,35,Rennes
48.1119795,-1.691532,643500,113.8,5.0,Appartement,35000,35,Rennes
48.1119795,-1.691532,627000,124.2,6.0,Maison,35000,35,Rennes
48.1119795,-1.691532,599645,144.0,7.0,Appartement,35000,35,Rennes
48.1119795,-1.691532,589900,132.6,5.0,Appartement,35000,35,Rennes
48.1119795,-1.691532,576000,88.6,4.0,Appartement,35000,35,Rennes
48.1119795,-1.691532,498000,121.0,5.0,Appartement,35000,35,Rennes
48.1119795,-1.691532,425000,90.3,4.0,Appartement,35000,35,Rennes
48.1119795,-1.691532,420000,60.0,3.0,Appartement,35000,35,Rennes
48.1119795,-1.691532,419000,75.2,3.0,Appartement,35000,35,Rennes
48.1119795,-1.691532,350000,65.6,3.0,Appartement,35000,35,Rennes
48.0893383,-1.6631727,349000,61.0,3.0,Appartement,35200,35,Rennes
48.1119795,-1.691532,327000,66.1,3.0,Appartement,35000,35,Rennes
48.1119795,-1.691532,318000,37.0,2.0,Appartement,35000,35,Rennes
48.1119795,-1.691532,294000,46.7,3.0,Appartement,35000,35,Rennes
48.0893383,-1.6631727,253500,44.0,2.0,Appartement,35200,35,Rennes
48.1119795,-1.691532,235000,43.1,2.0,Appartement,35000,35,Rennes
48.1119795,-1.691532,233900,81.0,4.0,Appartement,35000,35,Rennes
48.1119795,-1.691532,233000,65.9,3.0,Appartement,35000,35,Rennes
48.1119795,-1.691532,189000,47.6,2.0,Appartement,35000,35,Rennes
48.1119795,-1.691532,160000,21.6,1.0,Appartement,35000,35,Rennes
48.1119795,-1.691532,145000,19.8,1.0,Appartement,35000,35,Rennes
48.1119795,-1.691532,128800,18.4,1.0,Appartement,35000,35,Rennes
47.3852447,0.6881351,674000,146.8,5.0,Appartement,37000,37,Tours
47.3852447,0.6881351,639600,144.0,6.0,Maison,37000,37,Tours
47.3852447,0.6881351,587600,130.0,7.0,Maison,37000,37,Tours
47.3852447,0.6881351,535000,102.0,5.0,Maison,37000,37,Tours
47.3852447,0.6881351,451500,73.0,3.0,Appartement,37000,37,Tours
47.3852447,0.6881351,450000,82.0,3.0,Appartement,37000,37,Tours
47.3852447,0.6881351,364000,113.1,5.0,Appartement,37000,37,Tours
47.3852447,0.6881351,325877,63.6,3.0,Appartement,37000,37,Tours
47.3852447,0.6881351,318000,115.0,5.0,Appartement,37000,37,Tours
47.3852447,0.6881351,286200,86.0,4.0,Appartement,37000,37,Tours
47.3852447,0.6881351,257630,51.5,2.0,Appartement,37000,37,Tours
47.3852447,0.6881351,254000,60.0,3.0,Appartement,37000,37,Tours
47.3852447,0.6881351,249900,60.0,2.0,Appartement,37000,37,Tours
47.3852447,0.6881351,247046,60.2,3.0,Appartement,37000,37,Tours
47.3852447,0.6881351,221000,48.0,2.0,Appartement,37000,37,Tours
47.3852447,0.6881351,1144000,260.0,7.0,Maison,37000,37,Tours
47.3852447,0.6881351,181109,38.9,2.0,Appartement,37000,37,Tours
47.3852447,0.6881351,138000,59.0,2.0,Appartement,37000,37,Tours
45.4509921,4.3896191,98000,99.0,4.0,Appartement,42000,42,Saint-Étienne
45.4509921,4.3896191,81000,80.0,3.0,Appartement,42000,42,Saint-Étienne
45.4094272,4.428537,72000,71.5,3.0,Appartement,42100,42,Saint-Étienne
45.4094272,4.428537,69000,56.0,2.0,Appartement,42100,42,Saint-Étienne
45.4509921,4.3896191,67500,48.5,4.0,Appartement,42000,42,Saint-Étienne
45.4509921,4.3896191,67000,31.0,2.0,Appartement,42000,42,Saint-Étienne
45.4094272,4.428537,60000,57.0,4.0,Appartement,42100,42,Saint-Étienne
45.4509921,4.3896191,59000,48.6,3.0,Appartement,42000,42,Saint-Étienne
45.4509921,4.3896191,54000,50.0,2.0,Appartement,42000,42,Saint-Étienne
45.4509921,4.3896191,520000,214.0,6.0,Appartement,42000,42,Saint-Étienne
45.4509921,4.3896191,239000,129.0,5.0,Appartement,42000,42,Saint-Étienne
45.4509921,4.3896191,215000,134.8,5.0,Appartement,42000,42,Saint-Étienne
45.4509921,4.3896191,200000,204.0,6.0,Appartement,42000,42,Saint-Étienne
45.4509921,4.3896191,190000,235.5,7.0,Appartement,42000,42,Saint-Étienne
45.4094272,4.428537,185000,185.0,7.0,Appartement,42100,42,Saint-Étienne
45.4509921,4.3896191,163000,128.0,6.0,Appartement,42000,42,Saint-Étienne
45.4509921,4.3896191,149000,109.5,4.0,Maison,42000,42,Saint-Étienne
45.4094272,4.428537,129500,65.2,3.0,Appartement,42100,42,Saint-Étienne
45.4509921,4.3896191,110000,100.4,5.0,Appartement,42000,42,Saint-Étienne
47.2232246,-1.5532911,569000,86.0,4.0,Appartement,44000,44,Nantes
47.2232246,-1.5532911,549000,86.0,4.0,Appartement,44000,44,Nantes
47.2232246,-1.5532911,549000,155.2,3.0,Appartement,44000,44,Nantes
47.2232246,-1.5532911,498000,132.0,4.0,Appartement,44000,44,Nantes
47.2232246,-1.5532911,430000,67.0,3.0,Appartement,44000,44,Nantes
47.2232246,-1.5532911,399000,64.0,3.0,Appartement,44000,44,Nantes
47.2232246,-1.5532911,349000,107.0,5.0,Appartement,44000,44,Nantes
47.2232246,-1.5532911,325000,89.0,4.0,Appartement,44000,44,Nantes
47.2463783,-1.5387866,300900,80.1,4.0,Appartement,44300,44,Nantes
47.2463783,-1.5387866,265000,80.0,3.0,Appartement,44300,44,Nantes
47.1953218,-1.5425223,264500,75.0,4.0,Appartement,44200,44,Nantes
47.2232246,-1.5532911,255000,43.0,2.0,Appartement,44000,44,Nantes
47.2232246,-1.5532911,240000,62.0,3.0,Appartement,44000,44,Nantes
47.2232246,-1.5532911,239000,66.0,3.0,Appartement,44000,44,Nantes
47.2232246,-1.5532911,235000,34.0,1.0,Appartement,44000,44,Nantes
47.2232246,-1.5532911,1399000,138.0,5.0,Appartement,44000,44,Nantes
47.1953218,-1.5425223,195810,61.0,3.0,Appartement,44200,44,Nantes
47.2232246,-1.5532911,189000,50.0,3.0,Appartement,44000,44,Nantes
47.1953218,-1.5425223,189000,68.0,3.0,Appartement,44200,44,Nantes
47.2463783,-1.5387866,181700,36.7,2.0,Appartement,44300,44,Nantes
47.2232246,-1.5532911,180000,26.0,2.0,Appartement,44000,44,Nantes
47.1953218,-1.5425223,164000,40.0,2.0,Appartement,44200,44,Nantes
47.2232246,-1.5532911,144000,19.0,1.0,Appartement,44000,44,Nantes
47.1953218,-1.5425223,144000,49.0,2.0,Appartement,44200,44,Nantes
47.2232246,-1.5532911,142000,18.0,1.0,Appartement,44000,44,Nantes
47.2115796,-1.588977,139500,89.0,4.0,Appartement,44100,44,Nantes
47.2463783,-1.5387866,100000,29.0,1.0,Appartement,44300,44,Nantes
47.4631294,-0.5408982,675000,75.0,3.0,Appartement,49000,49,Angers
47.4631294,-0.5408982,474000,115.0,5.0,Maison,49000,49,Angers
47.4631294,-0.5408982,447000,108.0,5.0,Appartement,49000,49,Angers
47.4631294,-0.5408982,428000,95.0,4.0,Maison,49000,49,Angers
47.4943373,-0.5508614,370000,88.0,4.0,Appartement,49100,49,Angers
47.4631294,-0.5408982,310000,58.0,3.0,Appartement,49000,49,Angers
47.4631294,-0.5408982,309000,65.7,3.0,Appartement,49000,49,Angers
47.4943373,-0.5508614,289000,81.0,4.0,Appartement,49100,49,Angers
47.4943373,-0.5508614,265000,65.0,3.0,Appartement,49100,49,Angers
47.4631294,-0.5408982,262000,57.9,3.0,Appartement,49000,49,Angers
47.4943373,-0.5508614,261800,84.0,4.0,Appartement,49100,49,Angers
47.4631294,-0.5408982,240000,53.7,3.0,Appartement,49000,49,Angers
47.4631294,-0.5408982,225000,40.0,2.0,Appartement,49000,49,Angers
47.4631294,-0.5408982,224000,45.2,2.0,Appartement,49000,49,Angers
47.4943373,-0.5508614,215000,61.6,3.0,Appartement,49100,49,Angers
47.4631294,-0.5408982,212000,91.0,4.0,Appartement,49000,49,Angers
47.4943373,-0.5508614,210114,33.9,2.0,Appartement,49100,49,Angers
47.4943373,-0.5508614,186292,43.9,2.0,Appartement,49100,49,Angers
47.4631294,-0.5408982,184000,34.9,2.0,Appartement,49000,49,Angers
47.4631294,-0.5408982,181108,43.9,2.0,Appartement,49000,49,Angers
47.4631294,-0.5408982,169000,30.7,1.0,Appartement,49000,49,Angers
47.4631294,-0.5408982,163000,30.0,1.0,Appartement,49000,49,Angers
47.4943373,-0.5508614,158000,31.0,1.0,Appartement,49100,49,Angers
47.4943373,-0.5508614,130712,22.1,1.0,Appartement,49100,49,Angers
49.2534078,4.0482781,990000,162.8,5.0,Appartement,51100,51,Reims
49.2534078,4.0482781,520000,110.0,3.0,Appartement,51100,51,Reims
49.2534078,4.0482781,500000,109.0,4.0,Appartement,51100,51,Reims
49.2534078,4.0482781,440000,121.6,5.0,Appartement,51100,51,Reims
49.2534078,4.0482781,369900,83.5,4.0,Appartement,51100,51,Reims
49.2534078,4.0482781,350000,67.6,3.0,Appartement,51100,51,Reims
49.2534078,4.0482781,349000,99.0,3.0,Appartement,51100,51,Reims
49.2534078,4.0482781,348000,80.6,4.0,Appartement,51100,51,Reims
49.2534078,4.0482781,322000,56.1,2.0,Appartement,51100,51,Reims
49.2534078,4.0482781,312000,79.0,4.0,Appartement,51100,51,Reims
49.2534078,4.0482781,259900,66.0,3.0,Appartement,51100,51,Reims
49.2534078,4.0482781,254000,66.6,3.0,Appartement,51100,51,Reims
49.2534078,4.0482781,250000,49.7,2.0,Appartement,51100,51,Reims
49.2534078,4.0482781,245000,49.7,2.0,Appartement,51100,51,Reims
49.2534078,4.0482781,244500,102.0,5.0,Appartement,51100,51,Reims
49.2534078,4.0482781,235400,86.3,4.0,Appartement,51100,51,Reims
49.2534078,4.0482781,220000,60.1,3.0,Appartement,51100,51,Reims
49.2534078,4.0482781,192000,44.0,2.0,Appartement,51100,51,Reims
49.2534078,4.0482781,176000,41.5,2.0,Appartement,51100,51,Reims
49.2534078,4.0482781,174900,39.0,2.0,Appartement,51100,51,Reims
49.2534078,4.0482781,172000,57.0,2.0,Appartement,51100,51,Reims
49.2534078,4.0482781,158400,40.0,2.0,Appartement,51100,51,Reims
49.2534078,4.0482781,149900,26.7,1.0,Appartement,51100,51,Reims
49.2534078,4.0482781,145000,24.3,1.0,Appartement,51100,51,Reims
49.2534078,4.0482781,102600,27.4,1.0,Appartement,51100,51,Reims
45.772236,3.1107082,329000,133.0,6.0,Appartement,63000,63,Clermont-Ferrand
45.772236,3.1107082,319000,88.5,4.0,Maison,63000,63,Clermont-Ferrand
45.772236,3.1107082,285000,82.1,4.0,Appartement,63000,63,Clermont-Ferrand
45.772236,3.1107082,269000,83.4,4.0,Appartement,63000,63,Clermont-Ferrand
45.772236,3.1107082,259000,65.7,3.0,Maison,63000,63,Clermont-Ferrand
45.772236,3.1107082,232000,56.5,3.0,Appartement,63000,63,Clermont-Ferrand
45.772236,3.1107082,219000,76.0,3.0,Appartement,63000,63,Clermont-Ferrand
45.772236,3.1107082,219000,60.6,3.0,Appartement,63000,63,Clermont-Ferrand
45.772236,3.1107082,215000,61.7,3.0,Appartement,63000,63,Clermont-Ferrand
45.772236,3.1107082,180000,44.6,2.0,Appartement,63000,63,Clermont-Ferrand
45.795098,3.1107156,175000,61.0,3.0,Appartement,63100,63,Clermont-Ferrand
45.772236,3.1107082,169300,41.0,2.0,Appartement,63000,63,Clermont-Ferrand
45.772236,3.1107082,159000,42.5,2.0,Appartement,63000,63,Clermont-Ferrand
45.772236,3.1107082,152250,53.0,2.0,Appartement,63000,63,Clermont-Ferrand
45.772236,3.1107082,133600,22.0,1.0,Appartement,63000,63,Clermont-Ferrand
45.772236,3.1107082,126500,74.0,4.0,Appartement,63000,63,Clermont-Ferrand
45.772236,3.1107082,119000,29.3,1.0,Appartement,63000,63,Clermont-Ferrand
48.5947274,7.7742476,989998,250.5,10.0,Appartement,67000,67,Strasbourg
48.5947274,7.7742476,597600,96.7,5.0,Appartement,67000,67,Strasbourg
48.5947274,7.7742476,587900,90.9,5.0,Appartement,67000,67,Strasbourg
48.5947274,7.7742476,464900,79.9,4.0,Appartement,67000,67,Strasbourg
48.5947274,7.7742476,462500,89.6,4.0,Appartement,67000,67,Strasbourg
48.5947274,7.7742476,431100,84.9,4.0,Appartement,67000,67,Strasbourg
48.5346123,7.7809064,420000,74.4,4.0,Appartement,67100,67,Strasbourg
48.5947274,7.7742476,400563,63.0,3.0,Appartement,67000,67,Strasbourg
48.5947274,7.7742476,398000,83.7,4.0,Appartement,67000,67,Strasbourg
48.5947274,7.7742476,341996,66.5,3.0,Appartement,67000,67,Strasbourg
48.5947274,7.7742476,308000,65.2,3.0,Appartement,67000,67,Strasbourg
48.5947274,7.7742476,300700,60.1,3.0,Appartement,67000,67,Strasbourg
48.5947274,7.7742476,295000,63.9,3.0,Appartement,67000,67,Strasbourg
48.5947274,7.7742476,269000,72.0,4.0,Appartement,67000,67,Strasbourg
48.5947274,7.7742476,236800,41.7,2.0,Appartement,67000,67,Strasbourg
48.5947274,7.7742476,229463,47.5,2.0,Appartement,67000,67,Strasbourg
48.5947274,7.7742476,215000,55.3,3.0,Appartement,67000,67,Strasbourg
48.5947274,7.7742476,200500,37.4,2.0,Appartement,67000,67,Strasbourg
48.5947274,7.7742476,199000,31.8,1.0,Appartement,67000,67,Strasbourg
48.5947274,7.7742476,181800,27.4,1.0,Appartement,67000,67,Strasbourg
48.5947274,7.7742476,171000,27.8,1.0,Appartement,67000,67,Strasbourg
48.5947274,7.7742476,170000,25.8,1.0,Appartement,67000,67,Strasbourg
48.5947274,7.7742476,160500,25.5,1.0,Appartement,67000,67,Strasbourg
48.5947274,7.7742476,160000,39.5,2.0,Appartement,67000,67,Strasbourg
48.5947274,7.7742476,159000,55.0,2.0,Appartement,67000,67,Strasbourg
45.7803539,4.8255215,670000,86.0,4.0,Appartement,69004,69,Lyon
45.7462374,4.8227371,650000,109.0,3.0,Appartement,69002,69,Lyon
45.7323369,4.8347936,549000,95.0,4.0,Appartement,69007,69,Lyon
45.7513435,4.8760361,530000,91.0,4.0,Appartement,69003,69,Lyon
45.7323369,4.8347936,499000,111.0,4.0,Appartement,69007,69,Lyon
45.7803539,4.8255215,480000,62.3,3.0,Appartement,69004,69,Lyon
45.7462374,4.8227371,467000,76.2,4.0,Appartement,69002,69,Lyon
45.7323369,4.8347936,447000,70.0,3.0,Appartement,69007,69,Lyon
45.7700984,4.8265826,425000,76.0,3.0,Appartement,69001,69,Lyon
45.7700984,4.8265826,385000,72.0,3.0,Appartement,69001,69,Lyon
45.7462374,4.8227371,380000,59.8,3.0,Appartement,69002,69,Lyon
45.7803539,4.8255215,380000,54.0,2.0,Appartement,69004,69,Lyon
45.7323369,4.8347936,339000,82.0,3.0,Appartement,69007,69,Lyon
45.7340708,4.8693803,335000,85.0,4.0,Appartement,69008,69,Lyon
45.7323369,4.8347936,330000,89.0,5.0,Appartement,69007,69,Lyon
45.7835048,4.8021668,319000,62.0,3.0,Appartement,69009,69,Lyon
45.7323369,4.8347936,297000,78.0,4.0,Appartement,69007,69,Lyon
45.7513435,4.8760361,290000,43.0,2.0,Appartement,69003,69,Lyon
45.7513435,4.8760361,265000,59.0,3.0,Appartement,69003,69,Lyon
45.7835048,4.8021668,241000,64.6,3.0,Appartement,69009,69,Lyon
45.7340708,4.8693803,240000,73.0,3.0,Appartement,69008,69,Lyon
45.7835048,4.8021668,220000,60.7,2.0,Appartement,69009,69,Lyon
45.7513435,4.8760361,215000,39.0,2.0,Appartement,69003,69,Lyon
45.7513435,4.8760361,208000,39.0,2.0,Appartement,69003,69,Lyon
45.7340708,4.8693803,150000,43.5,2.0,Appartement,69008,69,Lyon
48.008023,0.2038573,99000,22.5,1.0,Appartement,72000,72,Le Mans
48.008023,0.2038573,679000,251.0,10.0,Maison,72000,72,Le Mans
48.008023,0.2038573,399000,143.0,6.0,Appartement,72000,72,Le Mans
48.008023,0.2038573,333000,151.0,6.0,Maison,72000,72,Le Mans
48.008023,0.2038573,182900,39.0,2.0,Appartement,72000,72,Le Mans
48.008023,0.2038573,181900,105.0,5.0,Appartement,72000,72,Le Mans
48.008023,0.2038573,169900,81.0,4.0,Appartement,72000,72,Le Mans
48.008023,0.2038573,159900,67.0,4.0,Appartement,72000,72,Le Mans
48.008023,0.2038573,149500,36.9,2.0,Appartement,72000,72,Le Mans
48.008023,0.2038573,141750,88.2,5.0,Appartement,72000,72,Le Mans
47.9631872,0.2089294,138980,72.0,3.0,Appartement,72100,72,Le Mans
48.008023,0.2038573,124000,68.0,3.0,Appartement,72000,72,Le Mans
48.008023,0.2038573,114300,19.0,1.0,Appartement,72000,72,Le Mans
48.8454189,2.3525824,966000,42.3,2.0,Appartement,75005,75,Paris
48.8414302,2.2961649,892500,142.2,5.0,Appartement,75015,75,Paris
48.8493765,2.3322544,850000,54.0,2.0,Appartement,75006,75,Paris
48.8770673,2.3379172,810000,50.0,2.0,Appartement,75009,75,Paris
48.8869876,2.3830496,699000,89.4,4.0,Appartement,75019,75,Paris
48.8618219,2.4010758,550000,86.0,3.0,Appartement,75020,75,Paris
48.8916223,2.3479768,499000,52.0,3.0,Appartement,75018,75,Paris
48.8541478,2.3568079,498000,33.1,2.0,Appartement,75004,75,Paris
48.8916223,2.3479768,460000,41.0,2.0,Appartement,75018,75,Paris
48.8493765,2.3322544,450000,32.0,2.0,Appartement,75006,75,Paris
48.8414302,2.2961649,449000,35.0,1.0,Appartement,75015,75,Paris
48.8600808,2.3781399,425000,45.7,2.0,Appartement,75011,75,Paris
48.8676828,2.3431278,415000,33.0,1.0,Appartement,75002,75,Paris
48.854928,2.2553299,3500000,245.0,6.0,Appartement,75016,75,Paris
48.8733792,2.3111527,3250000,264.0,7.0,Appartement,75008,75,Paris
48.8760081,2.360445,360000,33.0,2.0,Appartement,75010,75,Paris
48.8454189,2.3525824,2420000,140.4,6.0,Appartement,75005,75,Paris
48.8770673,2.3379172,290000,25.0,1.0,Appartement,75009,75,Paris
48.8454189,2.3525824,270000,17.0,1.0,Appartement,75005,75,Paris
48.8760081,2.360445,234000,27.0,2.0,Appartement,75010,75,Paris
48.854928,2.2553299,1990000,155.0,5.0,Appartement,75016,75,Paris
48.8352003,2.4451359,1800000,134.0,5.0,Maison,75012,75,Paris
48.854928,2.2553299,1065000,99.0,5.0,Appartement,75016,75,Paris
48.8414302,2.2961649,1050000,80.0,5.0,Appartement,75015,75,Paris
48.8600808,2.3781399,1020000,123.0,4.0,Appartement,75011,75,Paris
49.5130241,0.1058159,96000,54.0,3.0,Appartement,76620,76,Le Havre
49.4958928,0.1276081,938000,129.2,4.0,Appartement,76600,76,Le Havre
49.4958928,0.1276081,87672,17.9,1.0,Appartement,76600,76,Le Havre
49.4958928,0.1276081,77000,42.0,2.0,Appartement,76600,76,Le Havre
49.4958928,0.1276081,69000,25.0,2.0,Appartement,76600,76,Le Havre
49.4958928,0.1276081,55000,12.7,1.0,Appartement,76600,76,Le Havre
49.4958928,0.1276081,53000,28.0,1.0,Appartement,76600,76,Le Havre
49.4958928,0.1276081,464000,104.4,5.0,Appartement,76600,76,Le Havre
49.4958928,0.1276081,449000,115.6,5.0,Appartement,76600,76,Le Havre
49.4958928,0.1276081,434000,94.5,5.0,Appartement,76600,76,Le Havre
49.4958928,0.1276081,345000,75.0,4.0,Appartement,76600,76,Le Havre
49.4958928,0.1276081,325000,66.3,4.0,Appartement,76600,76,Le Havre
49.4958928,0.1276081,270000,70.3,3.0,Appartement,76600,76,Le Havre
49.4958928,0.1276081,268000,55.3,3.0,Appartement,76600,76,Le Havre
49.4958928,0.1276081,238900,70.5,3.0,Appartement,76600,76,Le Havre
49.4958928,0.1276081,210000,67.0,3.0,Appartement,76600,76,Le Havre
49.4958928,0.1276081,209000,39.0,2.0,Appartement,76600,76,Le Havre
49.4958928,0.1276081,179900,45.3,2.0,Appartement,76600,76,Le Havre
49.4958928,0.1276081,178381,42.2,3.0,Appartement,76600,76,Le Havre
49.4958928,0.1276081,170886,38.5,2.0,Appartement,76600,76,Le Havre
49.4958928,0.1276081,170000,69.2,3.0,Appartement,76600,76,Le Havre
49.4958928,0.1276081,170000,62.0,3.0,Appartement,76600,76,Le Havre
49.4958928,0.1276081,170000,33.0,2.0,Appartement,76600,76,Le Havre
49.4958928,0.1276081,105000,54.0,2.0,Appartement,76600,76,Le Havre
48.9334215,2.3624387,639300,107.3,5.0,Appartement,93200,93,Saint-Denis
48.9334215,2.3624387,497300,80.9,4.0,Appartement,93200,93,Saint-Denis
48.9334215,2.3624387,465600,81.9,4.0,Appartement,93200,93,Saint-Denis
48.9334215,2.3624387,426000,63.8,3.0,Appartement,93200,93,Saint-Denis
48.9334215,2.3624387,394700,68.8,3.0,Appartement,93200,93,Saint-Denis
48.9334215,2.3624387,377000,69.0,3.0,Appartement,93200,93,Saint-Denis
48.9334215,2.3624387,377000,58.6,3.0,Appartement,93200,93,Saint-Denis
48.9334215,2.3624387,329000,45.0,,Appartement,93200,93,Saint-Denis
48.9334215,2.3624387,326300,89.5,5.0,Appartement,93200,93,Saint-Denis
48.9334215,2.3624387,326000,83.0,4.0,Appartement,93200,93,Saint-Denis
48.9334215,2.3624387,310000,82.0,4.0,Appartement,93200,93,Saint-Denis
48.9334215,2.3624387,304500,39.0,2.0,Appartement,93200,93,Saint-Denis
48.9334215,2.3624387,272000,39.9,2.0,Appartement,93200,93,Saint-Denis
48.9334215,2.3624387,271000,61.2,3.0,Appartement,93200,93,Saint-Denis
48.9334215,2.3624387,260000,66.0,3.0,Appartement,93200,93,Saint-Denis
48.9334215,2.3624387,254600,31.7,1.0,Appartement,93200,93,Saint-Denis
48.9334215,2.3624387,220800,56.2,3.0,Appartement,93200,93,Saint-Denis
48.9334215,2.3624387,196000,24.3,1.0,Appartement,93200,93,Saint-Denis
48.9334215,2.3624387,175500,41.1,2.0,Appartement,93200,93,Saint-Denis
-20.8940223,55.4641732,93500,38.0,2.0,Appartement,97400,97,Saint-Denis
-20.8940223,55.4641732,779000,75.0,4.0,Appartement,97400,97,Saint-Denis
-20.8940223,55.4641732,688750,75.0,4.0,Appartement,97400,97,Saint-Denis
-20.8940223,55.4641732,535640,75.0,4.0,Appartement,97400,97,Saint-Denis
-20.8940223,55.4641732,485000,60.0,3.0,Appartement,97400,97,Saint-Denis
-20.8940223,55.4641732,478500,60.0,3.0,Appartement,97400,97,Saint-Denis
-20.8940223,55.4641732,440000,75.0,4.0,Appartement,97400,97,Saint-Denis
-20.8940223,55.4641732,379750,40.0,2.0,Appartement,97400,97,Saint-Denis
-20.8940223,55.4641732,298000,60.0,3.0,Appartement,97400,97,Saint-Denis
-20.8940223,55.4641732,263100,60.0,3.0,Appartement,97400,97,Saint-Denis
-20.8940223,55.4641732,249000,25.0,1.0,Appartement,97400,97,Saint-Denis
-20.8940223,55.4641732,248570,65.0,3.0,Appartement,97400,97,Saint-Denis
-20.8940223,55.4641732,232000,76.0,3.0,Appartement,97400,97,Saint-Denis
-20.8940223,55.4641732,220000,40.0,2.0,Appartement,97400,97,Saint-Denis
-20.8940223,55.4641732,220000,72.0,3.0,Appartement,97400,97,Saint-Denis
-20.9022858,55.4815021,209000,79.0,4.0,Appartement,97490,97,Saint-Denis
-20.8940223,55.4641732,191000,25.0,1.0,Appartement,97400,97,Saint-Denis
-20.8940223,55.4641732,190000,60.0,3.0,Appartement,97400,97,Saint-Denis
-20.8940223,55.4641732,176550,56.6,3.0,Appartement,97417,97,Saint-Denis
-20.8940223,55.4641732,110000,41.1,2.0,Appartement,97400,97,Saint-Denis
45.7803539,4.8255215,480000,62.3,3.0,Appartement,69004,01,Lyon
45.7835048,4.8021668,200000,41.0,2.0,Appartement,69009,01,Lyon
45.795098,3.1107156,89500,77.0,3.0,Appartement,63100,03,Clermont-Ferrand
43.6391219,1.4486548,342000,90.0,4.0,Maison,31200,09,Toulouse
43.6044303,1.4391951,236400,40.6,2.0,Appartement,31000,09,Toulouse
43.6044303,1.4391951,395100,92.0,4.0,Appartement,31000,09,Toulouse
43.6147233,3.879268,226000,42.0,2.0,Appartement,34000,12,Montpellier
43.3413417,5.4360677,325000,60.0,3.0,Maison,13013,13,Marseille
43.2535086,5.3826154,485000,85.0,4.0,Appartement,13008,13,Marseille
43.4984433,5.421383,1590000,138.0,6.0,Maison,13080,13,Aix-en-Provence
43.4984433,5.421383,1265000,155.0,6.0,Maison,13080,13,Aix-en-Provence
43.5271113,5.4305293,449000,71.0,3.0,Appartement,13090,13,Aix-en-Provence
43.2524772,5.4138202,489000,102.0,4.0,Appartement,13009,13,Marseille
43.5271113,5.4305293,599000,88.0,4.0,Appartement,13090,13,Aix-en-Provence
43.2821181,5.4157957,180000,65.2,3.0,Appartement,13010,13,Marseille
43.3550737,5.3574649,353000,107.0,5.0,Maison,13015,13,Marseille
43.5403693,5.522134,699000,108.0,5.0,Appartement,13100,13,Aix-en-Provence
43.5403693,5.522134,422000,66.0,3.0,Appartement,13100,13,Aix-en-Provence
43.5271113,5.4305293,343000,43.0,2.0,Appartement,13090,13,Aix-en-Provence
43.5403693,5.522134,1104000,144.0,6.0,Maison,13100,13,Aix-en-Provence
43.4984433,5.421383,600000,98.0,4.0,Maison,13080,13,Aix-en-Provence
43.5271113,5.4305293,350000,45.0,2.0,Appartement,13090,13,Aix-en-Provence
43.5403693,5.522134,1384000,115.0,5.0,Appartement,13100,13,Aix-en-Provence
43.5271113,5.4305293,604000,91.0,4.0,Appartement,13090,13,Aix-en-Provence
43.5271113,5.4305293,505000,70.0,3.0,Appartement,13090,13,Aix-en-Provence
43.5271113,5.4305293,940000,110.0,5.0,Appartement,13090,13,Aix-en-Provence
43.2535086,5.3826154,1083000,130.0,5.0,Appartement,13008,13,Marseille
43.5403693,5.522134,590000,92.0,4.0,Appartement,13100,13,Aix-en-Provence
43.5403693,5.522134,464000,90.0,4.0,Appartement,13100,13,Aix-en-Provence
43.2535086,5.3826154,505300,82.0,3.0,Appartement,13008,13,Marseille
43.5271113,5.4305293,390000,70.0,3.0,Appartement,13090,13,Aix-en-Provence
43.5271113,5.4305293,473000,70.0,3.0,Appartement,13090,13,Aix-en-Provence
43.5271113,5.4305293,540000,90.0,4.0,Appartement,13090,13,Aix-en-Provence
43.5403693,5.522134,540000,80.0,3.0,Appartement,13100,13,Aix-en-Provence
43.3108167,5.3783814,56250,42.0,2.0,Appartement,13003,13,Marseille
43.5403693,5.522134,430000,97.0,4.0,Appartement,13100,13,Aix-en-Provence
43.5403693,5.522134,619000,112.0,5.0,Appartement,13100,13,Aix-en-Provence
43.3108167,5.3783814,69000,35.0,2.0,Appartement,13003,13,Marseille
43.5403693,5.522134,310000,65.0,3.0,Appartement,13100,13,Aix-en-Provence
43.4984433,5.421383,448000,75.0,3.0,Maison,13080,13,Aix-en-Provence
43.2524772,5.4138202,275250,70.0,3.0,Appartement,13009,13,Marseille
43.2821181,5.4157957,265000,61.0,3.0,Appartement,13010,13,Marseille
43.2535086,5.3826154,899000,132.0,4.0,Appartement,13008,13,Marseille
43.2535086,5.3826154,446000,58.0,3.0,Appartement,13008,13,Marseille
43.3585809,5.3332325,321200,86.0,4.0,Appartement,13016,13,Marseille
43.2535086,5.3826154,392400,64.0,3.0,Appartement,13008,13,Marseille
43.2535086,5.3826154,1011700,100.0,3.0,Appartement,13008,13,Marseille
43.2892009,5.381581,106500,17.0,1.0,Appartement,13006,13,Marseille
43.2535086,5.3826154,869000,117.0,4.0,Appartement,13008,13,Marseille
43.2535086,5.3826154,580100,84.0,4.0,Appartement,13008,13,Marseille
43.2535086,5.3826154,984000,135.0,5.0,Appartement,13008,13,Marseille
43.2524772,5.4138202,338550,85.0,4.0,Appartement,13009,13,Marseille
43.2821181,5.4157957,287900,95.0,4.0,Appartement,13010,13,Marseille
43.3550737,5.3574649,208033,61.0,3.0,Appartement,13015,13,Marseille
43.3413417,5.4360677,215100,60.0,3.0,Appartement,13013,13,Marseille
43.3413417,5.4360677,280916,60.0,3.0,Appartement,13013,13,Marseille
43.3413417,5.4360677,159560,44.0,2.0,Appartement,13013,13,Marseille
43.2892009,5.381581,525000,83.0,4.0,Appartement,13006,13,Marseille
43.2892009,5.381581,728000,199.0,5.0,Appartement,13006,13,Marseille
43.5403693,5.522134,310000,66.0,3.0,Appartement,13100,13,Aix-en-Provence
43.5403693,5.522134,615000,113.0,5.0,Appartement,13100,13,Aix-en-Provence
43.5403693,5.522134,415000,92.0,4.0,Appartement,13100,13,Aix-en-Provence
43.3413417,5.4360677,567000,119.0,4.0,Maison,13013,13,Marseille
43.2535086,5.3826154,659000,89.0,3.0,Appartement,13008,13,Marseille
43.2535086,5.3826154,525000,114.0,4.0,Appartement,13008,13,Marseille
43.3038861,5.3678287,1600000,140.0,4.0,Appartement,13002,13,Marseille
44.8391049,-0.5814266,990000,168.0,5.0,Appartement,33000,17,Bordeaux
47.0781849,2.4001666,132000,35.0,2.0,Appartement,18000,18,Bourges
47.0781849,2.4001666,149999,42.0,2.0,Appartement,18000,18,Bourges
47.0781849,2.4001666,145999,39.0,2.0,Appartement,18000,18,Bourges
47.0781849,2.4001666,146999,42.0,2.0,Appartement,18000,18,Bourges
47.0781849,2.4001666,142000,39.0,2.0,Appartement,18000,18,Bourges
47.0781849,2.4001666,151999,42.0,2.0,Appartement,18000,18,Bourges
47.0781849,2.4001666,184500,59.0,3.0,Appartement,18000,18,Bourges
47.0781849,2.4001666,148999,43.0,2.0,Appartement,18000,18,Bourges
47.0781849,2.4001666,139999,39.0,2.0,Appartement,18000,18,Bourges
47.0781849,2.4001666,172000,58.0,3.0,Appartement,18000,18,Bourges
47.0781849,2.4001666,117800,52.0,2.0,Appartement,18000,18,Bourges
47.0781849,2.4001666,219900,58.0,3.0,Appartement,18000,18,Bourges
47.0781849,2.4001666,147000,43.0,2.0,Appartement,18000,18,Bourges
47.0781849,2.4001666,141000,51.0,2.0,Appartement,18000,18,Bourges
47.0781849,2.4001666,137000,42.0,2.0,Appartement,18000,18,Bourges
47.0781849,2.4001666,144000,41.0,2.0,Appartement,18000,18,Bourges
47.0781849,2.4001666,132000,36.0,2.0,Appartement,18000,18,Bourges
47.0781849,2.4001666,184500,60.0,3.0,Appartement,18000,18,Bourges
47.0781849,2.4001666,204626,91.0,4.0,Maison,18000,18,Bourges
47.0781849,2.4001666,173000,61.0,3.0,Appartement,18000,18,Bourges
47.0781849,2.4001666,379000,98.0,4.0,Appartement,18000,18,Bourges
47.0781849,2.4001666,299000,85.0,4.0,Appartement,18000,18,Bourges
47.0781849,2.4001666,249900,71.0,3.0,Appartement,18000,18,Bourges
47.0781849,2.4001666,154900,63.0,3.0,Maison,18000,18,Bourges
47.0781849,2.4001666,179900,91.0,4.0,Maison,18000,18,Bourges
47.0781849,2.4001666,376900,265.0,8.0,Maison,18000,18,Bourges
47.0781849,2.4001666,139900,41.0,2.0,Appartement,18000,18,Bourges
47.0781849,2.4001666,299900,85.0,4.0,Appartement,18000,18,Bourges
47.0781849,2.4001666,108900,26.0,1.0,Appartement,18000,18,Bourges
47.0781849,2.4001666,140000,40.0,2.0,Appartement,18000,18,Bourges
47.0781849,2.4001666,149000,41.0,2.0,Appartement,18000,18,Bourges
47.0781849,2.4001666,152000,43.0,2.0,Appartement,18000,18,Bourges
47.0781849,2.4001666,172000,85.0,4.0,Maison,18000,18,Bourges
47.0781849,2.4001666,154000,64.0,3.0,Maison,18000,18,Bourges
47.0781849,2.4001666,157900,102.4,5.0,Maison,18000,18,Bourges
47.0781849,2.4001666,81620,46.5,2.0,Appartement,18000,18,Bourges
47.0781849,2.4001666,99900,59.0,3.0,Appartement,18000,18,Bourges
47.0781849,2.4001666,54000,20.0,1.0,Appartement,18000,18,Bourges
47.0781849,2.4001666,80738,49.0,2.0,Appartement,18000,18,Bourges
47.0781849,2.4001666,140000,38.3,2.0,Appartement,18000,18,Bourges
47.331844,5.0447381,430000,160.0,6.0,Maison,21000,21,Dijon
47.331844,5.0447381,295000,85.7,5.0,Maison,21000,21,Dijon
47.331844,5.0447381,275000,75.8,4.0,Maison,21000,21,Dijon
47.331844,5.0447381,120000,22.2,1.0,Appartement,21000,21,Dijon
47.331844,5.0447381,180000,40.6,2.0,Appartement,21000,21,Dijon
47.331844,5.0447381,170000,37.7,2.0,Appartement,21000,21,Dijon
47.331844,5.0447381,319000,100.0,5.0,Appartement,21000,21,Dijon
47.331844,5.0447381,184000,67.0,3.0,Appartement,21000,21,Dijon
47.331844,5.0447381,219000,75.0,4.0,Appartement,21000,21,Dijon
47.331844,5.0447381,213000,65.9,3.0,Appartement,21000,21,Dijon
47.331844,5.0447381,263620,86.0,4.0,Appartement,21000,21,Dijon
47.331844,5.0447381,140000,35.0,2.0,Maison,21000,21,Dijon
47.331844,5.0447381,150000,40.0,3.0,Appartement,21000,21,Dijon
47.331844,5.0447381,148000,48.0,2.0,Appartement,21000,21,Dijon
47.331844,5.0447381,289000,85.9,4.0,Appartement,21000,21,Dijon
47.331844,5.0447381,216000,56.6,3.0,Appartement,21000,21,Dijon
47.331844,5.0447381,223500,76.0,4.0,Appartement,21000,21,Dijon
47.331844,5.0447381,199900,83.0,4.0,Appartement,21000,21,Dijon
47.331844,5.0447381,283200,87.0,4.0,Appartement,21000,21,Dijon
47.331844,5.0447381,248000,79.0,4.0,Appartement,21000,21,Dijon
47.331844,5.0447381,276200,79.0,3.0,Appartement,21000,21,Dijon
47.331844,5.0447381,787000,250.0,7.0,Appartement,21000,21,Dijon
47.331844,5.0447381,980000,218.9,7.0,Maison,21000,21,Dijon
47.331844,5.0447381,260233,75.0,4.0,Appartement,21000,21,Dijon
47.331844,5.0447381,269000,74.0,4.0,Appartement,21000,21,Dijon
47.331844,5.0447381,204000,63.0,3.0,Appartement,21000,21,Dijon
47.331844,5.0447381,157000,44.0,2.0,Appartement,21000,21,Dijon
47.331844,5.0447381,297158,90.0,4.0,Appartement,21000,21,Dijon
47.331844,5.0447381,159000,46.0,2.0,Appartement,21000,21,Dijon
44.8829908,-0.5568152,443000,81.4,4.0,Appartement,33300,24,Bordeaux
48.4083582,-4.4871141,141000,41.0,2.0,Appartement,29200,29,Brest
48.4083582,-4.4871141,160221,62.0,3.0,Appartement,29200,29,Brest
48.4083582,-4.4871141,265455,90.0,4.0,Appartement,29200,29,Brest
48.4083582,-4.4871141,229000,74.0,4.0,Appartement,29200,29,Brest
48.4083582,-4.4871141,131000,43.9,2.0,Appartement,29200,29,Brest
48.4083582,-4.4871141,205000,43.0,2.0,Appartement,29200,29,Brest
48.4083582,-4.4871141,160000,29.0,1.0,Appartement,29200,29,Brest
48.4083582,-4.4871141,265000,62.0,3.0,Appartement,29200,29,Brest
48.4083582,-4.4871141,170000,63.0,3.0,Appartement,29200,29,Brest
48.4083582,-4.4871141,172500,66.0,3.0,Appartement,29200,29,Brest
48.4083582,-4.4871141,196054,64.0,3.0,Appartement,29200,29,Brest
48.4083582,-4.4871141,284000,64.9,3.0,Appartement,29200,29,Brest
48.4083582,-4.4871141,249000,48.0,2.0,Appartement,29200,29,Brest
48.4083582,-4.4871141,329000,68.0,3.0,Appartement,29200,29,Brest
48.4083582,-4.4871141,290000,87.0,4.0,Appartement,29200,29,Brest
48.4083582,-4.4871141,183329,61.0,3.0,Appartement,29200,29,Brest
43.3085865,5.4000614,900000,211.0,10.0,Maison,13004,30,Marseille
43.6147233,3.879268,544900,98.3,5.0,Appartement,34000,30,Montpellier
43.6044303,1.4391951,690000,126.0,5.0,Appartement,31000,31,Toulouse
43.6391219,1.4486548,245000,110.0,4.0,Maison,31200,31,Toulouse
43.6044303,1.4391951,275000,55.0,2.0,Appartement,31000,31,Toulouse
43.6035842,1.4719448,330000,92.0,4.0,Appartement,31500,31,Toulouse
43.6391219,1.4486548,244300,88.0,3.0,Appartement,31200,31,Toulouse
43.6036188,1.3886893,434500,111.0,4.0,Appartement,31300,31,Toulouse
43.6391219,1.4486548,205900,56.0,2.0,Appartement,31200,31,Toulouse
43.6391219,1.4486548,109900,40.0,2.0,Appartement,31200,31,Toulouse
43.6391219,1.4486548,327000,82.0,4.0,Appartement,31200,31,Toulouse
43.6391219,1.4486548,260000,66.0,3.0,Appartement,31200,31,Toulouse
43.6391219,1.4486548,214000,44.0,2.0,Appartement,31200,31,Toulouse
43.6391219,1.4486548,214000,39.0,2.0,Appartement,31200,31,Toulouse
43.6044303,1.4391951,269900,60.0,3.0,Appartement,31000,31,Toulouse
43.6044303,1.4391951,515000,80.0,3.0,Appartement,31000,31,Toulouse
43.6391219,1.4486548,185900,49.0,2.0,Appartement,31200,31,Toulouse
43.6036188,1.3886893,585000,107.0,4.0,Appartement,31300,31,Toulouse
43.6044303,1.4391951,326000,60.0,3.0,Appartement,31000,31,Toulouse
43.6036188,1.3886893,330000,69.0,3.0,Appartement,31300,31,Toulouse
43.6044303,1.4391951,205000,53.0,3.0,Appartement,31000,31,Toulouse
43.6391219,1.4486548,175000,46.0,2.0,Appartement,31200,31,Toulouse
43.6036188,1.3886893,174000,43.0,2.0,Appartement,31300,31,Toulouse
43.6044303,1.4391951,261113,68.0,3.0,Appartement,31000,31,Toulouse
43.6391219,1.4486548,279000,65.0,3.0,Appartement,31200,31,Toulouse
43.5652405,1.4728899,515000,85.0,3.0,Appartement,31400,31,Toulouse
43.5652405,1.4728899,232900,51.0,2.0,Appartement,31400,31,Toulouse
43.6044303,1.4391951,352000,66.0,3.0,Appartement,31000,31,Toulouse
43.6036188,1.3886893,465000,84.0,3.0,Appartement,31300,31,Toulouse
43.6044303,1.4391951,499000,66.0,3.0,Appartement,31000,31,Toulouse
43.6036188,1.3886893,789000,140.0,5.0,Appartement,31300,31,Toulouse
43.6036188,1.3886893,187000,29.0,2.0,Appartement,31300,31,Toulouse
43.6044303,1.4391951,625000,106.0,4.0,Appartement,31000,31,Toulouse
43.6391219,1.4486548,209500,44.0,2.0,Appartement,31200,31,Toulouse
43.5652405,1.4728899,365900,115.0,4.0,Appartement,31400,31,Toulouse
43.6044303,1.4391951,1046500,135.0,5.0,Appartement,31000,31,Toulouse
43.5652405,1.4728899,256000,67.0,3.0,Appartement,31400,31,Toulouse
43.5652405,1.4728899,660000,135.0,5.0,Maison,31400,31,Toulouse
43.6044303,1.4391951,795000,187.0,8.0,Maison,31000,32,Toulouse
44.8391049,-0.5814266,191250,44.0,2.0,Appartement,33000,33,Bordeaux
44.8391049,-0.5814266,324000,65.0,3.0,Appartement,33000,33,Bordeaux
44.8391049,-0.5814266,252000,53.0,2.0,Appartement,33000,33,Bordeaux
44.8391049,-0.5814266,480000,97.0,4.0,Appartement,33000,33,Bordeaux
44.8391049,-0.5814266,328999,65.0,3.0,Appartement,33000,33,Bordeaux
44.8391049,-0.5814266,423000,94.0,5.0,Appartement,33000,33,Bordeaux
44.8391049,-0.5814266,336000,74.0,3.0,Appartement,33000,33,Bordeaux
44.8391049,-0.5814266,289999,61.0,3.0,Appartement,33000,33,Bordeaux
44.8391049,-0.5814266,265000,56.0,2.0,Appartement,33000,33,Bordeaux
44.8391049,-0.5814266,268999,56.0,2.0,Appartement,33000,33,Bordeaux
44.8391049,-0.5814266,325001,65.0,3.0,Appartement,33000,33,Bordeaux
44.8391049,-0.5814266,343999,74.0,3.0,Appartement,33000,33,Bordeaux
44.8391049,-0.5814266,226999,45.0,2.0,Appartement,33000,33,Bordeaux
44.8391049,-0.5814266,282000,61.0,3.0,Appartement,33000,33,Bordeaux
44.8391049,-0.5814266,208999,41.0,2.0,Appartement,33000,33,Bordeaux
44.8391049,-0.5814266,331000,74.0,3.0,Appartement,33000,33,Bordeaux
44.8391049,-0.5814266,391000,84.0,4.0,Appartement,33000,33,Bordeaux
44.8391049,-0.5814266,219000,41.0,2.0,Appartement,33000,33,Bordeaux
44.8391049,-0.5814266,232000,45.0,2.0,Appartement,33000,33,Bordeaux
44.8391049,-0.5814266,301999,65.0,3.0,Appartement,33000,33,Bordeaux
44.8391049,-0.5814266,427999,90.0,4.0,Appartement,33000,33,Bordeaux
44.8391049,-0.5814266,340000,74.0,3.0,Appartement,33000,33,Bordeaux
44.8391049,-0.5814266,298999,65.0,3.0,Appartement,33000,33,Bordeaux
44.8391049,-0.5814266,436000,99.0,5.0,Appartement,33000,33,Bordeaux
44.8391049,-0.5814266,238000,45.0,2.0,Appartement,33000,33,Bordeaux
44.8456834,-0.553098,310200,78.0,4.0,Appartement,33100,33,Bordeaux
44.8391049,-0.5814266,205000,46.0,2.0,Appartement,33000,33,Bordeaux
44.8391049,-0.5814266,345000,66.0,3.0,Appartement,33000,33,Bordeaux
44.8829908,-0.5568152,841000,117.0,4.0,Appartement,33300,33,Bordeaux
44.8391049,-0.5814266,202500,44.0,2.0,Appartement,33000,33,Bordeaux
44.8829908,-0.5568152,330000,85.0,4.0,Appartement,33300,33,Bordeaux
44.8391049,-0.5814266,344000,49.0,2.0,Appartement,33000,33,Bordeaux
43.5991683,3.8650034,129900,50.7,2.0,Appartement,34070,34,Montpellier
43.5991683,3.8650034,320000,89.0,4.0,Appartement,34070,34,Montpellier
43.5991683,3.8650034,119000,44.5,2.0,Appartement,34070,34,Montpellier
43.6316416,3.8651679,179000,42.1,2.0,Appartement,34090,34,Montpellier
43.6147233,3.879268,625000,95.0,4.0,Appartement,34000,34,Montpellier
43.5991683,3.8650034,175000,55.0,3.0,Appartement,34070,34,Montpellier
43.6147233,3.879268,235562,72.0,3.0,Appartement,34000,34,Montpellier
43.6147233,3.879268,339000,71.0,3.0,Appartement,34000,34,Montpellier
43.6147233,3.879268,227400,44.0,2.0,Appartement,34000,34,Montpellier
43.6147233,3.879268,273000,69.0,3.0,Appartement,34000,34,Montpellier
43.6147233,3.879268,195426,71.0,3.0,Appartement,34000,34,Montpellier
43.6147233,3.879268,270999,72.0,3.0,Appartement,34000,34,Montpellier
43.5991683,3.8650034,256247,70.0,4.0,Appartement,34070,34,Montpellier
43.5991683,3.8650034,164900,57.9,3.0,Appartement,34070,34,Montpellier
43.6147233,3.879268,199900,48.1,2.0,Appartement,34000,34,Montpellier
43.610205,3.8027649,377000,91.0,4.0,Appartement,34080,34,Montpellier
43.6147233,3.879268,385000,65.0,3.0,Appartement,34000,34,Montpellier
43.610205,3.8027649,614000,132.0,5.0,Appartement,34080,34,Montpellier
43.610205,3.8027649,456000,111.0,4.0,Appartement,34080,34,Montpellier
43.6147233,3.879268,355075,100.0,4.0,Appartement,34000,34,Montpellier
48.1119795,-1.691532,249900,47.0,3.0,Appartement,35000,35,Rennes
48.1119795,-1.691532,259900,52.0,2.0,Appartement,35000,35,Rennes
48.1119795,-1.691532,145000,42.0,2.0,Appartement,35000,35,Rennes
48.1119795,-1.691532,158800,38.0,2.0,Appartement,35000,35,Rennes
48.1323128,-1.6575847,789900,195.0,8.0,Maison,35700,35,Rennes
48.1119795,-1.691532,269900,64.0,3.0,Appartement,35000,35,Rennes
48.1119795,-1.691532,296500,63.0,3.0,Appartement,35000,35,Rennes
48.1119795,-1.691532,159990,42.0,2.0,Appartement,35000,35,Rennes
48.1119795,-1.691532,138690,40.0,2.0,Appartement,35000,35,Rennes
48.1119795,-1.691532,384000,86.0,4.0,Appartement,35000,35,Rennes
48.1119795,-1.691532,350000,70.0,3.0,Appartement,35000,35,Rennes
48.1119795,-1.691532,284000,67.0,3.0,Appartement,35000,35,Rennes
48.1119795,-1.691532,570000,115.0,4.0,Appartement,35000,35,Rennes
48.1119795,-1.691532,60000,15.7,1.0,Appartement,35000,35,Rennes
48.1323128,-1.6575847,295000,48.0,2.0,Appartement,35700,35,Rennes
47.3852447,0.6881351,166999,39.0,2.0,Appartement,37000,37,Tours
47.3852447,0.6881351,169999,46.0,2.0,Appartement,37000,37,Tours
47.4190924,0.702471,255000,88.0,4.0,Appartement,37100,37,Tours
47.4190924,0.702471,260000,86.0,4.0,Appartement,37100,37,Tours
47.3852447,0.6881351,400000,105.0,5.0,Appartement,37000,37,Tours
47.3852447,0.6881351,213000,56.0,3.0,Appartement,37000,37,Tours
47.3852447,0.6881351,314000,82.0,4.0,Appartement,37000,37,Tours
47.4190924,0.702471,172917,59.0,3.0,Appartement,37100,37,Tours
47.3852447,0.6881351,399604,99.0,5.0,Appartement,37000,37,Tours
47.3852447,0.6881351,234083,79.0,4.0,Appartement,37000,37,Tours
47.3852447,0.6881351,139900,41.0,2.0,Appartement,37000,37,Tours
47.3852447,0.6881351,247046,60.0,3.0,Appartement,37000,37,Tours
47.3852447,0.6881351,263000,89.0,4.0,Appartement,37000,37,Tours
47.4190924,0.702471,88000,27.0,1.0,Appartement,37100,37,Tours
47.3852447,0.6881351,229800,52.0,3.0,Appartement,37000,37,Tours
47.4190924,0.702471,199000,59.0,3.0,Appartement,37100,37,Tours
47.4190924,0.702471,305900,100.0,4.0,Appartement,37100,37,Tours
47.4190924,0.702471,210900,72.0,3.0,Appartement,37100,37,Tours
47.3852447,0.6881351,197900,63.5,3.0,Appartement,37000,37,Tours
47.3852447,0.6881351,149900,43.0,2.0,Appartement,37000,37,Tours
47.3852447,0.6881351,305900,99.4,4.0,Appartement,37000,37,Tours
47.4631294,-0.5408982,474000,115.0,5.0,Maison,49000,37,Angers
47.4190924,0.702471,319000,85.0,4.0,Appartement,37100,37,Tours
47.4190924,0.702471,278100,63.0,3.0,Appartement,37100,37,Tours
47.4190924,0.702471,429000,82.0,3.0,Appartement,37100,37,Tours
47.3852447,0.6881351,233000,101.0,4.0,Appartement,37000,37,Tours
47.3621517,0.7004776,150000,81.0,5.0,Appartement,37200,37,Tours
47.3852447,0.6881351,473300,78.8,3.0,Appartement,37000,37,Tours
47.3852447,0.6881351,633000,189.0,6.0,Appartement,37000,37,Tours
47.4190924,0.702471,313000,77.0,4.0,Appartement,37100,37,Tours
47.4190924,0.702471,244000,62.0,3.0,Appartement,37100,37,Tours
47.3852447,0.6881351,549000,160.0,5.0,Appartement,37000,37,Tours
47.3621517,0.7004776,124800,86.9,4.0,Appartement,37200,37,Tours
47.3852447,0.6881351,269900,88.3,3.0,Appartement,37000,37,Tours
47.4190924,0.702471,222000,60.0,3.0,Appartement,37100,37,Tours
47.4190924,0.702471,197000,46.0,2.0,Appartement,37100,37,Tours
47.3852447,0.6881351,181988,39.0,2.0,Appartement,37000,37,Tours
47.4631294,-0.5408982,598000,162.0,6.0,Maison,49000,37,Angers
45.7340708,4.8693803,194000,25.0,1.0,Appartement,69008,38,Lyon
47.331844,5.0447381,160000,75.2,3.0,Appartement,21000,39,Dijon
44.8538685,-0.6165877,217900,48.0,2.0,Appartement,33200,40,Bordeaux
44.8829908,-0.5568152,260000,79.0,4.0,Appartement,33300,40,Bordeaux
47.3852447,0.6881351,325877,63.6,3.0,Appartement,37000,41,Tours
45.4094272,4.428537,65000,59.0,3.0,Appartement,42100,42,Saint-Étienne
45.4321992,4.2990148,155000,86.0,4.0,Maison,42230,42,Saint-Étienne
45.4509921,4.3896191,56000,56.0,3.0,Appartement,42000,42,Saint-Étienne
45.4094272,4.428537,46000,64.0,3.0,Appartement,42100,42,Saint-Étienne
45.4509921,4.3896191,179000,65.0,3.0,Appartement,42000,42,Saint-Étienne
45.4509921,4.3896191,154900,75.0,3.0,Appartement,42000,42,Saint-Étienne
45.4509921,4.3896191,159900,72.0,3.0,Appartement,42000,42,Saint-Étienne
45.4509921,4.3896191,189900,75.0,3.0,Appartement,42000,42,Saint-Étienne
45.4509921,4.3896191,183000,70.0,3.0,Appartement,42000,42,Saint-Étienne
45.4509921,4.3896191,80000,65.0,3.0,Appartement,42000,42,Saint-Étienne
45.7803539,4.8255215,570000,100.0,4.0,Appartement,69004,42,Lyon
45.4509921,4.3896191,230000,84.0,4.0,Appartement,42000,42,Saint-Étienne
45.4509921,4.3896191,184010,64.0,4.0,Appartement,42000,42,Saint-Étienne
45.4509921,4.3896191,171400,68.0,3.0,Appartement,42000,42,Saint-Étienne
45.4509921,4.3896191,264000,105.0,5.0,Appartement,42000,42,Saint-Étienne
45.4509921,4.3896191,169900,74.0,3.0,Appartement,42000,42,Saint-Étienne
45.4509921,4.3896191,178031,65.0,3.0,Appartement,42000,42,Saint-Étienne
45.4509921,4.3896191,54800,51.7,2.0,Appartement,42000,42,Saint-Étienne
45.4509921,4.3896191,59500,50.9,2.0,Appartement,42000,42,Saint-Étienne
45.4509921,4.3896191,56200,51.2,2.0,Appartement,42000,42,Saint-Étienne
45.4509921,4.3896191,189400,76.0,3.0,Appartement,42000,42,Saint-Étienne
45.4509921,4.3896191,264000,106.0,5.0,Appartement,42000,42,Saint-Étienne
47.2463783,-1.5387866,224700,63.0,3.0,Appartement,44300,44,Nantes
47.1953218,-1.5425223,369000,100.0,5.0,Maison,44200,44,Nantes
47.2463783,-1.5387866,309000,83.0,4.0,Appartement,44300,44,Nantes
47.2463783,-1.5387866,181000,40.0,2.0,Appartement,44300,44,Nantes
47.1953218,-1.5425223,258200,70.0,3.0,Appartement,44200,44,Nantes
47.2232246,-1.5532911,274040,64.0,3.0,Appartement,44000,44,Nantes
47.2463783,-1.5387866,215000,59.0,3.0,Appartement,44300,44,Nantes
47.2463783,-1.5387866,475000,91.0,4.0,Appartement,44300,44,Nantes
47.2232246,-1.5532911,175000,37.0,2.0,Appartement,44000,44,Nantes
47.2232246,-1.5532911,213100,52.0,3.0,Appartement,44000,44,Nantes
47.2232246,-1.5532911,285000,80.0,4.0,Appartement,44000,44,Nantes
47.2115796,-1.588977,499000,108.0,4.0,Appartement,44100,44,Nantes
47.2232246,-1.5532911,232000,55.0,3.0,Appartement,44000,44,Nantes
47.4943373,-0.5508614,199000,47.0,2.0,Appartement,49100,49,Angers
48.008023,0.2038573,115000,58.0,2.0,Appartement,72000,49,Le Mans
47.4631294,-0.5408982,237000,66.0,3.0,Appartement,49000,49,Angers
47.4631294,-0.5408982,428000,105.0,4.0,Maison,49000,49,Angers
47.6481818,-0.7289861,129800,71.0,4.0,Maison,49220,49,Angers
47.4631294,-0.5408982,990000,122.0,5.0,Appartement,49000,49,Angers
47.4943373,-0.5508614,519750,122.0,5.0,Appartement,49100,49,Angers
47.4631294,-0.5408982,118000,41.0,2.0,Appartement,49000,49,Angers
47.4943373,-0.5508614,189000,68.0,3.0,Appartement,49100,49,Angers
47.4943373,-0.5508614,305000,100.0,5.0,Maison,49100,49,Angers
47.4631294,-0.5408982,350000,99.0,4.0,Appartement,49000,49,Angers
47.4631294,-0.5408982,169625,53.0,2.0,Appartement,49000,49,Angers
47.4943373,-0.5508614,287500,92.0,4.0,Maison,49100,49,Angers
47.4943373,-0.5508614,293000,64.0,3.0,Appartement,49100,49,Angers
47.4943373,-0.5508614,304000,61.0,3.0,Appartement,49100,49,Angers
47.4943373,-0.5508614,203700,72.0,3.0,Appartement,49100,49,Angers
47.4631294,-0.5408982,250000,72.0,3.0,Appartement,49000,49,Angers
47.4631294,-0.5408982,280000,105.0,5.0,Appartement,49000,49,Angers
47.4631294,-0.5408982,243475,88.0,4.0,Appartement,49000,49,Angers
47.4631294,-0.5408982,247000,68.0,3.0,Appartement,49000,49,Angers
47.4631294,-0.5408982,109000,18.0,1.0,Appartement,49000,49,Angers
47.4943373,-0.5508614,239000,71.0,3.0,Appartement,49100,49,Angers
47.4631294,-0.5408982,187000,45.0,2.0,Appartement,49000,49,Angers
47.4943373,-0.5508614,369000,85.0,4.0,Appartement,49100,49,Angers
47.4631294,-0.5408982,990000,122.0,5.0,Appartement,49000,49,Angers
47.4631294,-0.5408982,443000,115.0,4.0,Maison,49000,49,Angers
47.4631294,-0.5408982,290000,106.0,5.0,Appartement,49000,49,Angers
47.4631294,-0.5408982,250000,88.2,4.0,Appartement,49000,49,Angers
47.4943373,-0.5508614,305900,91.0,4.0,Appartement,49100,49,Angers
47.4631294,-0.5408982,231000,64.0,3.0,Appartement,49000,49,Angers
47.4631294,-0.5408982,420000,150.0,6.0,Maison,49000,49,Angers
47.4943373,-0.5508614,204000,63.0,3.0,Appartement,49100,49,Angers
47.4631294,-0.5408982,310200,100.0,4.0,Appartement,49000,49,Angers
47.4631294,-0.5408982,258475,83.0,4.0,Appartement,49000,49,Angers
47.4631294,-0.5408982,310000,90.0,5.0,Maison,49000,49,Angers
47.4631294,-0.5408982,301554,86.0,4.0,Appartement,49000,49,Angers
47.4631294,-0.5408982,223150,70.0,3.0,Appartement,49000,49,Angers
47.4631294,-0.5408982,224000,45.0,2.0,Appartement,49000,49,Angers
47.4631294,-0.5408982,144000,64.0,4.0,Appartement,49000,49,Angers
47.4631294,-0.5408982,429000,105.0,4.0,Maison,49000,49,Angers
47.4631294,-0.5408982,237000,67.0,3.0,Appartement,49000,49,Angers
47.4943373,-0.5508614,210000,60.0,3.0,Appartement,49100,49,Angers
47.4943373,-0.5508614,299000,95.0,4.0,Appartement,49100,49,Angers
48.008023,0.2038573,435000,174.0,8.0,Maison,72000,49,Le Mans
49.2534078,4.0482781,276000,80.0,4.0,Appartement,51100,51,Reims
49.2534078,4.0482781,193000,43.0,2.0,Appartement,51100,51,Reims
49.2534078,4.0482781,324000,56.0,2.0,Appartement,51100,51,Reims
48.965737,4.3761893,323900,66.0,3.0,Appartement,51000,51,Reims
48.965737,4.3761893,511900,108.0,4.0,Appartement,51000,51,Reims
49.2534078,4.0482781,585000,102.0,4.0,Appartement,51100,51,Reims
49.2534078,4.0482781,695000,132.0,5.0,Appartement,51100,51,Reims
48.965737,4.3761893,621900,97.0,4.0,Appartement,51000,51,Reims
48.965737,4.3761893,185900,38.0,2.0,Appartement,51000,51,Reims
49.2534078,4.0482781,139000,50.0,2.0,Appartement,51100,51,Reims
49.2534078,4.0482781,610000,105.0,5.0,Appartement,51100,51,Reims
49.2534078,4.0482781,548000,124.0,5.0,Appartement,51100,51,Reims
49.2534078,4.0482781,535000,86.0,4.0,Appartement,51100,51,Reims
49.2534078,4.0482781,310000,103.0,6.0,Maison,51100,51,Reims
49.2534078,4.0482781,455000,140.0,5.0,Appartement,51100,51,Reims
49.2534078,4.0482781,332000,70.0,3.0,Appartement,51100,51,Reims
49.2534078,4.0482781,535000,100.0,4.0,Appartement,51100,51,Reims
49.2534078,4.0482781,159000,49.0,2.0,Appartement,51100,51,Reims
49.2534078,4.0482781,306000,89.0,4.0,Appartement,51100,51,Reims
49.2534078,4.0482781,205000,61.0,3.0,Appartement,51100,51,Reims
49.2534078,4.0482781,189000,65.0,3.0,Appartement,51100,51,Reims
49.2534078,4.0482781,241000,70.0,3.0,Appartement,51100,51,Reims
49.2534078,4.0482781,589000,132.0,5.0,Appartement,51100,51,Reims
49.2534078,4.0482781,312000,80.0,4.0,Appartement,51100,51,Reims
49.2534078,4.0482781,332000,65.0,3.0,Appartement,51100,51,Reims
49.2534078,4.0482781,469000,96.0,4.0,Appartement,51100,51,Reims
49.2534078,4.0482781,265000,48.0,2.0,Appartement,51100,51,Reims
49.2534078,4.0482781,309120,56.0,2.0,Appartement,51100,51,Reims
49.2534078,4.0482781,589000,123.0,5.0,Appartement,51100,51,Reims
49.2534078,4.0482781,205900,47.0,2.0,Appartement,51100,51,Reims
49.2534078,4.0482781,254240,57.0,3.0,Appartement,51100,51,Reims
49.2534078,4.0482781,292000,79.0,4.0,Appartement,51100,51,Reims
49.2534078,4.0482781,360000,65.0,3.0,Appartement,51100,51,Reims
49.2534078,4.0482781,293000,48.0,2.0,Appartement,51100,51,Reims
49.2534078,4.0482781,666000,105.0,5.0,Appartement,51100,51,Reims
49.2534078,4.0482781,762000,134.0,5.0,Appartement,51100,51,Reims
49.2534078,4.0482781,591000,86.0,4.0,Appartement,51100,51,Reims
49.2534078,4.0482781,491000,96.0,4.0,Appartement,51100,51,Reims
49.2534078,4.0482781,70700,21.0,1.0,Appartement,51100,51,Reims
49.2534078,4.0482781,158350,81.0,4.0,Appartement,51100,51,Reims
49.2534078,4.0482781,490000,96.0,4.0,Appartement,51100,51,Reims
49.2534078,4.0482781,695000,134.0,5.0,Appartement,51100,51,Reims
49.2534078,4.0482781,247500,88.0,4.0,Maison,51100,51,Reims
49.2534078,4.0482781,233000,66.0,3.0,Appartement,51100,51,Reims
49.2534078,4.0482781,210000,40.0,1.0,Appartement,51100,51,Reims
49.2534078,4.0482781,685000,128.0,5.0,Appartement,51100,51,Reims
49.2534078,4.0482781,171000,43.0,2.0,Appartement,51100,51,Reims
49.2534078,4.0482781,571000,120.0,5.0,Appartement,51100,51,Reims
49.2534078,4.0482781,461900,108.0,4.0,Appartement,51100,51,Reims
49.2534078,4.0482781,447273,65.0,3.0,Appartement,51100,51,Reims
49.2534078,4.0482781,182750,90.4,5.0,Appartement,51100,52,Reims
49.2534078,4.0482781,250000,49.7,2.0,Appartement,51100,52,Reims
48.1119795,-1.691532,196635,44.0,2.0,Appartement,35000,53,Rennes
48.6898134,6.180931,88000,46.0,2.0,Appartement,54000,54,Nancy
48.6898134,6.180931,226000,57.0,3.0,Appartement,54000,54,Nancy
48.6880666,6.1811504,154725,62.0,3.0,Appartement,54100,54,Nancy
48.5947274,7.7742476,234000,42.0,2.0,Appartement,67000,54,Strasbourg
48.6880666,6.1811504,120500,43.0,2.0,Appartement,54100,54,Nancy
48.6898134,6.180931,251000,61.0,3.0,Appartement,54000,54,Nancy
48.6898134,6.180931,179900,40.0,2.0,Appartement,54000,54,Nancy
48.6898134,6.180931,242000,56.0,3.0,Appartement,54000,54,Nancy
48.6898134,6.180931,237131,82.0,4.0,Appartement,54000,54,Nancy
48.6898134,6.180931,174342,68.0,3.0,Appartement,54000,54,Nancy
48.6898134,6.180931,296000,83.0,4.0,Appartement,54000,54,Nancy
48.6898134,6.180931,350788,110.0,4.0,Appartement,54000,54,Nancy
48.6898134,6.180931,321483,109.0,4.0,Appartement,54000,54,Nancy
48.6898134,6.180931,65000,23.0,1.0,Appartement,54000,54,Nancy
48.6898134,6.180931,270000,72.0,3.0,Appartement,54000,54,Nancy
48.5947274,7.7742476,300700,60.1,3.0,Appartement,67000,54,Strasbourg
48.6898134,6.180931,166163,39.0,2.0,Appartement,54000,54,Nancy
48.6898134,6.180931,224188,61.0,3.0,Appartement,54000,54,Nancy
48.5947274,7.7742476,229463,47.5,2.0,Appartement,67000,54,Strasbourg
48.6880666,6.1811504,146730,40.0,2.0,Appartement,54100,54,Nancy
48.6898134,6.180931,262000,79.0,4.0,Appartement,54000,54,Nancy
48.6898134,6.180931,269000,67.0,3.0,Appartement,54000,54,Nancy
48.6898134,6.180931,155000,74.0,3.0,Appartement,54000,54,Nancy
48.6898134,6.180931,289246,82.0,4.0,Appartement,54000,54,Nancy
48.6898134,6.180931,240208,81.0,4.0,Appartement,54000,54,Nancy
48.6898134,6.180931,263000,61.0,3.0,Appartement,54000,54,Nancy
48.6898134,6.180931,267000,64.6,3.0,Appartement,54000,54,Nancy
48.6898134,6.180931,253000,59.8,3.0,Appartement,54000,54,Nancy
48.6898134,6.180931,265000,64.6,3.0,Appartement,54000,54,Nancy
48.6898134,6.180931,262000,61.8,3.0,Appartement,54000,54,Nancy
48.6898134,6.180931,249000,56.1,3.0,Appartement,54000,54,Nancy
48.6898134,6.180931,255000,59.8,3.0,Appartement,54000,54,Nancy
48.6898134,6.180931,307000,76.3,4.0,Appartement,54000,54,Nancy
48.6898134,6.180931,269000,64.6,3.0,Appartement,54000,54,Nancy
48.6898134,6.180931,258000,60.9,3.0,Appartement,54000,54,Nancy
48.6898134,6.180931,251000,61.8,3.0,Appartement,54000,54,Nancy
48.6898134,6.180931,270000,64.6,3.0,Appartement,54000,54,Nancy
48.6898134,6.180931,257000,61.8,3.0,Appartement,54000,54,Nancy
48.6898134,6.180931,259000,64.7,3.0,Appartement,54000,54,Nancy
48.6898134,6.180931,242000,56.1,3.0,Appartement,54000,54,Nancy
49.2534078,4.0482781,192000,44.0,2.0,Appartement,51100,55,Reims
49.2534078,4.0482781,322000,56.1,2.0,Appartement,51100,55,Reims
49.2534078,4.0482781,174900,39.0,2.0,Appartement,51100,55,Reims
47.2463783,-1.5387866,349000,121.0,5.0,Appartement,44300,56,Nantes
48.1119795,-1.691532,350000,59.0,3.0,Appartement,35000,56,Rennes
47.2463783,-1.5387866,351579,79.0,4.0,Appartement,44300,56,Nantes
48.5947274,7.7742476,199000,31.8,1.0,Appartement,67000,57,Strasbourg
48.6898134,6.180931,125000,39.0,2.0,Appartement,54000,57,Nancy
48.5947274,7.7742476,450000,74.7,3.0,Appartement,67000,57,Strasbourg
47.331844,5.0447381,170000,38.0,2.0,Appartement,21000,58,Dijon
48.008023,0.2038573,288000,79.7,4.0,Appartement,72000,61,Le Mans
45.795098,3.1107156,125000,41.0,2.0,Appartement,63100,63,Clermont-Ferrand
45.795098,3.1107156,68500,40.0,2.0,Appartement,63100,63,Clermont-Ferrand
45.772236,3.1107082,210000,80.0,3.0,Appartement,63000,63,Clermont-Ferrand
45.772236,3.1107082,265000,76.0,4.0,Appartement,63000,63,Clermont-Ferrand
45.772236,3.1107082,430000,104.0,4.0,Appartement,63000,63,Clermont-Ferrand
45.772236,3.1107082,322500,63.0,3.0,Appartement,63000,63,Clermont-Ferrand
45.772236,3.1107082,263000,76.0,4.0,Appartement,63000,63,Clermont-Ferrand
45.772236,3.1107082,241083,76.0,4.0,Appartement,63000,63,Clermont-Ferrand
45.795098,3.1107156,209916,58.0,3.0,Appartement,63100,63,Clermont-Ferrand
45.772236,3.1107082,310221,69.0,3.0,Appartement,63000,63,Clermont-Ferrand
45.795098,3.1107156,191000,60.0,3.0,Appartement,63100,63,Clermont-Ferrand
45.772236,3.1107082,227400,60.0,3.0,Appartement,63000,63,Clermont-Ferrand
45.795098,3.1107156,171500,43.0,2.0,Appartement,63100,63,Clermont-Ferrand
45.772236,3.1107082,580000,124.0,5.0,Appartement,63000,63,Clermont-Ferrand
45.772236,3.1107082,400000,104.0,4.0,Appartement,63000,63,Clermont-Ferrand
45.772236,3.1107082,180000,40.0,2.0,Appartement,63000,63,Clermont-Ferrand
45.772236,3.1107082,183000,41.0,2.0,Appartement,63000,63,Clermont-Ferrand
45.772236,3.1107082,137400,38.0,2.0,Appartement,63000,63,Clermont-Ferrand
45.772236,3.1107082,263000,76.0,4.0,Appartement,63000,63,Clermont-Ferrand
45.772236,3.1107082,238800,59.0,3.0,Appartement,63000,63,Clermont-Ferrand
45.772236,3.1107082,342310,52.0,3.0,Appartement,63000,63,Clermont-Ferrand
45.772236,3.1107082,267000,60.0,3.0,Appartement,63000,63,Clermont-Ferrand
45.772236,3.1107082,241411,39.0,2.0,Appartement,63000,63,Clermont-Ferrand
45.772236,3.1107082,295000,76.0,4.0,Appartement,63000,63,Clermont-Ferrand
45.795098,3.1107156,129900,38.0,2.0,Appartement,63100,63,Clermont-Ferrand
45.772236,3.1107082,184999,41.0,2.0,Appartement,63000,63,Clermont-Ferrand
45.772236,3.1107082,172000,41.0,2.0,Appartement,63000,63,Clermont-Ferrand
45.772236,3.1107082,275900,74.0,4.0,Appartement,63000,63,Clermont-Ferrand
45.772236,3.1107082,232000,56.0,3.0,Appartement,63000,63,Clermont-Ferrand
45.772236,3.1107082,238999,58.0,3.0,Appartement,63000,63,Clermont-Ferrand
45.772236,3.1107082,201900,55.0,3.0,Appartement,63000,63,Clermont-Ferrand
45.772236,3.1107082,315000,92.0,4.0,Appartement,63000,63,Clermont-Ferrand
45.772236,3.1107082,134000,40.0,2.0,Appartement,63000,63,Clermont-Ferrand
45.795098,3.1107156,125000,41.0,2.0,Appartement,63100,63,Clermont-Ferrand
45.7429544,3.1311438,110070,18.0,1.0,Appartement,63170,63,Clermont-Ferrand
45.772236,3.1107082,189000,32.0,1.0,Appartement,63000,63,Clermont-Ferrand
48.5346123,7.7809064,155800,42.2,2.0,Appartement,67100,67,Strasbourg
48.5346123,7.7809064,267000,91.7,4.0,Appartement,67100,67,Strasbourg
48.5947274,7.7742476,154900,45.0,1.0,Appartement,67000,67,Strasbourg
48.5947274,7.7742476,150558,41.0,2.0,Appartement,67000,67,Strasbourg
48.5346123,7.7809064,158500,43.0,2.0,Appartement,67100,67,Strasbourg
48.5346123,7.7809064,199000,66.0,3.0,Appartement,67100,67,Strasbourg
48.5346123,7.7809064,240900,75.0,4.0,Appartement,67100,67,Strasbourg
48.6898134,6.180931,139000,58.0,3.0,Appartement,54000,67,Nancy
48.5947274,7.7742476,294000,54.0,2.0,Appartement,67000,67,Strasbourg
48.5947274,7.7742476,277500,90.0,4.0,Appartement,67000,67,Strasbourg
48.5346123,7.7809064,209800,60.0,3.0,Appartement,67100,67,Strasbourg
48.5346123,7.7809064,261900,79.0,4.0,Appartement,67100,67,Strasbourg
48.5346123,7.7809064,157500,65.0,3.0,Appartement,67100,67,Strasbourg
48.5346123,7.7809064,250000,77.0,4.0,Appartement,67100,67,Strasbourg
48.5346123,7.7809064,327800,64.8,3.0,Appartement,67100,67,Strasbourg
48.5947274,7.7742476,550000,82.0,4.0,Appartement,67000,67,Strasbourg
48.5947274,7.7742476,995000,170.0,8.0,Appartement,67000,67,Strasbourg
48.5346123,7.7809064,481000,92.0,4.0,Appartement,67100,67,Strasbourg
48.5346123,7.7809064,285000,102.0,5.0,Appartement,67100,67,Strasbourg
48.5947274,7.7742476,500400,85.0,4.0,Appartement,67000,67,Strasbourg
48.5947274,7.7742476,1074000,130.0,5.0,Appartement,67000,67,Strasbourg
48.5947274,7.7742476,764000,106.1,5.0,Appartement,67000,67,Strasbourg
48.5947274,7.7742476,444920,81.5,4.0,Appartement,67000,67,Strasbourg
48.5786951,7.7109979,159000,53.7,2.0,Appartement,67200,67,Strasbourg
48.5947274,7.7742476,615000,83.7,4.0,Appartement,67000,67,Strasbourg
48.5947274,7.7742476,396000,63.7,3.0,Appartement,67000,67,Strasbourg
48.5947274,7.7742476,453000,91.5,5.0,Appartement,67000,67,Strasbourg
48.5786951,7.7109979,188000,120.0,6.0,Maison,67200,67,Strasbourg
48.5947274,7.7742476,678900,84.0,4.0,Appartement,67000,67,Strasbourg
48.5947274,7.7742476,799900,107.0,5.0,Appartement,67000,67,Strasbourg
48.5947274,7.7742476,528900,91.0,3.0,Appartement,67000,67,Strasbourg
48.5947274,7.7742476,1199000,121.0,5.0,Appartement,67000,67,Strasbourg
48.5947274,7.7742476,399000,64.0,3.0,Appartement,67000,67,Strasbourg
48.5947274,7.7742476,654900,91.0,5.0,Appartement,67000,67,Strasbourg
48.5947274,7.7742476,539900,80.0,4.0,Appartement,67000,67,Strasbourg
48.5947274,7.7742476,186000,60.8,3.0,Appartement,67000,67,Strasbourg
48.5947274,7.7742476,361956,82.5,4.0,Appartement,67000,67,Strasbourg
48.5947274,7.7742476,113860,24.8,1.0,Appartement,67000,67,Strasbourg
48.5346123,7.7809064,186000,60.8,3.0,Appartement,67100,67,Strasbourg
48.5346123,7.7809064,317946,78.9,4.0,Appartement,67100,67,Strasbourg
48.5947274,7.7742476,367940,96.8,4.0,Appartement,67000,67,Strasbourg
48.5346123,7.7809064,242468,94.9,5.0,Appartement,67100,67,Strasbourg
48.5947274,7.7742476,989986,250.5,10.0,Appartement,67000,67,Strasbourg
48.5947274,7.7742476,151980,36.4,1.0,Appartement,67000,67,Strasbourg
48.5346123,7.7809064,367940,96.8,4.0,Appartement,67100,67,Strasbourg
48.5786951,7.7109979,151980,36.4,1.0,Appartement,67200,67,Strasbourg
48.5947274,7.7742476,349000,55.0,3.0,Appartement,67000,68,Strasbourg
45.7513435,4.8760361,190000,31.0,2.0,Appartement,69003,69,Lyon
45.7323369,4.8347936,375000,91.0,4.0,Appartement,69007,69,Lyon
45.7513435,4.8760361,140000,33.0,2.0,Appartement,69003,69,Lyon
45.7462374,4.8227371,440000,79.0,3.0,Appartement,69002,69,Lyon
45.7462374,4.8227371,292000,43.0,2.0,Appartement,69002,69,Lyon
45.7513435,4.8760361,180000,37.0,1.0,Appartement,69003,69,Lyon
45.7462374,4.8227371,376000,72.0,3.0,Appartement,69002,69,Lyon
45.7803539,4.8255215,365000,92.0,4.0,Appartement,69004,69,Lyon
45.7462374,4.8227371,383000,60.0,3.0,Appartement,69002,69,Lyon
45.7555156,4.8036379,330000,76.0,3.0,Appartement,69005,69,Lyon
45.7513435,4.8760361,215000,51.0,2.0,Maison,69003,69,Lyon
45.7803539,4.8255215,795000,103.0,4.0,Appartement,69004,69,Lyon
45.7323369,4.8347936,622999,104.0,5.0,Appartement,69007,69,Lyon
45.7323369,4.8347936,495000,83.0,4.0,Appartement,69007,69,Lyon
45.7835048,4.8021668,550000,103.0,5.0,Appartement,69009,69,Lyon
45.7340708,4.8693803,300500,59.0,3.0,Appartement,69008,69,Lyon
47.331844,5.0447381,105000,37.0,2.0,Appartement,21000,70,Dijon
47.331844,5.0447381,245000,84.0,5.0,Appartement,21000,70,Dijon
45.7462374,4.8227371,765000,114.8,5.0,Appartement,69002,71,Lyon
45.7803539,4.8255215,649000,145.0,5.0,Appartement,69004,71,Lyon
48.008023,0.2038573,288000,79.0,4.0,Appartement,72000,72,Le Mans
48.008023,0.2038573,245040,41.0,2.0,Appartement,72000,72,Le Mans
48.008023,0.2038573,398000,100.0,4.0,Appartement,72000,72,Le Mans
48.008023,0.2038573,210400,60.0,3.0,Appartement,72000,72,Le Mans
47.4631294,-0.5408982,462000,112.0,5.0,Maison,49000,72,Angers
48.008023,0.2038573,340000,71.0,3.0,Appartement,72000,72,Le Mans
48.008023,0.2038573,162900,39.0,2.0,Appartement,72000,72,Le Mans
48.008023,0.2038573,288000,79.0,4.0,Appartement,72000,72,Le Mans
48.008023,0.2038573,351500,71.0,3.0,Appartement,72000,72,Le Mans
48.008023,0.2038573,245040,41.0,2.0,Appartement,72000,72,Le Mans
48.008023,0.2038573,361900,101.0,4.0,Appartement,72000,72,Le Mans
48.008023,0.2038573,352917,101.0,4.0,Appartement,72000,72,Le Mans
47.4943373,-0.5508614,265000,65.0,3.0,Appartement,49100,72,Angers
48.008023,0.2038573,352916,100.0,4.0,Appartement,72000,72,Le Mans
48.008023,0.2038573,184900,67.0,3.0,Appartement,72000,72,Le Mans
48.008023,0.2038573,279900,114.0,6.0,Maison,72000,72,Le Mans
48.008023,0.2038573,182900,39.0,2.0,Appartement,72000,72,Le Mans
48.008023,0.2038573,171900,39.0,2.0,Appartement,72000,72,Le Mans
48.008023,0.2038573,162900,39.0,2.0,Appartement,72000,72,Le Mans
47.9631872,0.2089294,70000,22.5,1.0,Appartement,72100,72,Le Mans
48.008023,0.2038573,348000,79.0,4.0,Appartement,72000,72,Le Mans
48.008023,0.2038573,238000,60.0,3.0,Appartement,72000,72,Le Mans
48.008023,0.2038573,560000,121.0,6.0,Appartement,72000,72,Le Mans
48.008023,0.2038573,189000,45.0,2.0,Appartement,72000,72,Le Mans
48.008023,0.2038573,159980,90.0,4.0,Maison,72000,72,Le Mans
48.008023,0.2038573,60000,18.0,1.0,Appartement,72000,72,Le Mans
48.008023,0.2038573,303990,132.0,7.0,Maison,72000,72,Le Mans
48.008023,0.2038573,199990,105.0,6.0,Maison,72000,72,Le Mans
48.008023,0.2038573,292000,113.9,6.0,Maison,72000,72,Le Mans
48.854928,2.2553299,1150000,69.9,3.0,Appartement,75016,75,Paris
48.8295585,2.323974,400000,38.0,2.0,Appartement,75014,75,Paris
48.8295585,2.323974,688200,50.0,2.0,Appartement,75014,75,Paris
48.8414302,2.2961649,483000,86.0,4.0,Appartement,75015,75,Paris
48.8600808,2.3781399,385000,37.0,2.0,Appartement,75011,75,Paris
48.8770673,2.3379172,900000,95.0,4.0,Appartement,75009,75,Paris
48.8733792,2.3111527,4780000,171.0,6.0,Appartement,75008,75,Paris
48.8626858,2.3586866,769000,60.0,3.0,Appartement,75003,75,Paris
48.8352003,2.4451359,625000,129.0,3.0,Appartement,75012,75,Paris
48.8770673,2.3379172,780000,80.0,4.0,Appartement,75009,75,Paris
48.8869876,2.3830496,192000,23.0,1.0,Appartement,75019,75,Paris
48.8916223,2.3479768,269000,39.0,2.0,Appartement,75018,75,Paris
48.8295585,2.323974,238000,25.0,1.0,Appartement,75014,75,Paris
48.8298445,2.3630439,565000,63.0,3.0,Appartement,75013,75,Paris
48.8295585,2.323974,545000,52.0,3.0,Appartement,75014,75,Paris
48.8414302,2.2961649,849000,107.0,5.0,Appartement,75015,75,Paris
48.854928,2.2553299,1490000,127.4,6.0,Appartement,75016,75,Paris
48.8873906,2.3064833,756000,78.0,3.0,Appartement,75017,75,Paris
48.8352003,2.4451359,399000,35.0,2.0,Appartement,75012,75,Paris
48.8916223,2.3479768,269000,39.0,1.0,Appartement,75018,75,Paris
48.8541478,2.3568079,4475000,177.3,6.0,Appartement,75004,75,Paris
48.8873906,2.3064833,490000,40.0,2.0,Appartement,75017,75,Paris
48.8414302,2.2961649,495000,55.0,2.0,Appartement,75015,75,Paris
48.8869876,2.3830496,473000,60.0,3.0,Appartement,75019,75,Paris
48.8493765,2.3322544,1260000,54.0,2.0,Appartement,75006,75,Paris
48.8600808,2.3781399,580000,47.0,2.0,Appartement,75011,75,Paris
48.8618219,2.4010758,699000,74.0,3.0,Appartement,75020,75,Paris
48.8873906,2.3064833,690000,65.0,3.0,Appartement,75017,75,Paris
48.8760081,2.360445,295000,27.0,2.0,Appartement,75010,75,Paris
48.8916223,2.3479768,289000,36.2,2.0,Appartement,75018,75,Paris
48.854909,2.3128667,1495000,119.1,5.0,Appartement,75007,75,Paris
48.854928,2.2553299,405000,39.0,1.0,Appartement,75016,75,Paris
48.854928,2.2553299,2105000,152.0,6.0,Appartement,75016,75,Paris
48.854928,2.2553299,750000,45.0,2.0,Appartement,75016,75,Paris
48.854928,2.2553299,900000,93.0,4.0,Appartement,75016,75,Paris
48.854928,2.2553299,480000,30.0,2.0,Appartement,75016,75,Paris
48.854928,2.2553299,2200000,230.0,7.0,Appartement,75016,75,Paris
48.854928,2.2553299,1490000,127.0,4.0,Appartement,75016,75,Paris
48.854928,2.2553299,4850000,315.0,7.0,Appartement,75016,75,Paris
48.8493765,2.3322544,698000,45.0,1.0,Appartement,75006,75,Paris
48.8733792,2.3111527,3120000,115.0,4.0,Appartement,75008,75,Paris
48.8916223,2.3479768,275100,28.0,2.0,Appartement,75018,75,Paris
48.8295585,2.323974,275000,24.0,1.0,Appartement,75014,75,Paris
48.8733792,2.3111527,1990000,242.0,6.0,Appartement,75008,75,Paris
48.8295585,2.323974,2800200,200.0,2.0,Appartement,75014,75,Paris
48.8869876,2.3830496,359000,57.0,2.0,Appartement,75019,75,Paris
48.9334215,2.3624387,180200,47.4,2.0,Appartement,93200,75,Saint-Denis
48.8873906,2.3064833,1990000,187.0,7.0,Appartement,75017,75,Paris
48.8916223,2.3479768,900000,90.0,4.0,Appartement,75018,75,Paris
48.8916223,2.3479768,1750000,130.0,5.0,Appartement,75018,75,Paris
48.8916223,2.3479768,1210000,105.0,4.0,Appartement,75018,75,Paris
48.8600808,2.3781399,2390000,188.0,7.0,Maison,75011,75,Paris
48.8618219,2.4010758,359000,57.0,2.0,Appartement,75020,75,Paris
48.8916223,2.3479768,2700000,148.0,5.0,Appartement,75018,75,Paris
48.8916223,2.3479768,1269000,107.0,5.0,Appartement,75018,75,Paris
48.8600808,2.3781399,489000,46.0,2.0,Appartement,75011,75,Paris
48.854928,2.2553299,1040000,75.0,3.0,Appartement,75016,75,Paris
48.8414302,2.2961649,440000,50.0,2.0,Appartement,75015,75,Paris
48.8618219,2.4010758,198000,18.0,1.0,Appartement,75020,75,Paris
48.8733792,2.3111527,400000,35.1,2.0,Appartement,75008,75,Paris
48.8916223,2.3479768,860000,80.0,3.0,Appartement,75018,75,Paris
48.8873906,2.3064833,245000,36.6,1.0,Appartement,75017,75,Paris
48.8454189,2.3525824,480000,38.0,2.0,Appartement,75005,75,Paris
48.8493765,2.3322544,590000,31.0,1.0,Appartement,75006,75,Paris
48.8873906,2.3064833,725000,56.3,3.0,Appartement,75017,75,Paris
48.8618219,2.4010758,191000,22.0,1.0,Appartement,75020,75,Paris
48.8873906,2.3064833,525000,42.0,2.0,Appartement,75017,75,Paris
48.8493765,2.3322544,700000,40.0,2.0,Appartement,75006,75,Paris
48.8493765,2.3322544,433900,32.0,1.0,Appartement,75006,75,Paris
48.8873906,2.3064833,490000,43.1,2.0,Appartement,75017,75,Paris
48.8873906,2.3064833,195000,13.1,1.0,Appartement,75017,75,Paris
48.8493765,2.3322544,690000,53.0,2.0,Appartement,75006,75,Paris
48.8454189,2.3525824,624000,50.0,3.0,Appartement,75005,75,Paris
48.8414302,2.2961649,990000,92.7,4.0,Appartement,75015,75,Paris
48.8770673,2.3379172,515500,39.1,2.0,Appartement,75009,75,Paris
48.8733792,2.3111527,1820000,86.0,4.0,Appartement,75008,75,Paris
48.8541478,2.3568079,850000,62.0,3.0,Appartement,75004,75,Paris
48.854928,2.2553299,517000,41.0,2.0,Appartement,75016,75,Paris
48.854928,2.2553299,3350000,223.0,7.0,Appartement,75016,75,Paris
48.854928,2.2553299,575000,50.0,1.0,Appartement,75016,75,Paris
48.8414302,2.2961649,270000,41.0,2.0,Appartement,75015,75,Paris
48.8414302,2.2961649,535000,60.0,3.0,Appartement,75015,75,Paris
48.8600808,2.3781399,1236000,111.0,5.0,Appartement,75011,75,Paris
49.4958928,0.1276081,179000,64.0,3.0,Maison,76600,76,Le Havre
49.5130241,0.1058159,176000,65.0,3.0,Maison,76620,76,Le Havre
49.5130241,0.1058159,230000,85.0,4.0,Maison,76620,76,Le Havre
49.4958928,0.1276081,215000,86.0,4.0,Maison,76600,76,Le Havre
49.4958928,0.1276081,159000,77.0,3.0,Appartement,76600,76,Le Havre
49.4958928,0.1276081,165000,79.0,4.0,Maison,76600,76,Le Havre
49.4958928,0.1276081,106000,55.0,2.0,Appartement,76600,76,Le Havre
49.4958928,0.1276081,252100,81.0,4.0,Appartement,76600,76,Le Havre
49.4958928,0.1276081,219100,65.0,3.0,Appartement,76600,76,Le Havre
49.4958928,0.1276081,248531,66.0,3.0,Appartement,76600,76,Le Havre
49.4958928,0.1276081,252900,83.0,4.0,Appartement,76600,76,Le Havre
49.4958928,0.1276081,226400,68.0,3.0,Appartement,76600,76,Le Havre
49.4958928,0.1276081,179000,50.0,2.0,Appartement,76600,76,Le Havre
49.4958928,0.1276081,227000,72.0,3.0,Appartement,76600,76,Le Havre
49.4958928,0.1276081,226100,69.0,3.0,Appartement,76600,76,Le Havre
49.4958928,0.1276081,197118,52.0,2.0,Appartement,76600,76,Le Havre
49.4958928,0.1276081,229000,69.0,3.0,Appartement,76600,76,Le Havre
49.4958928,0.1276081,226400,71.0,3.0,Appartement,76600,76,Le Havre
49.4958928,0.1276081,232200,71.0,3.0,Appartement,76600,76,Le Havre
49.4958928,0.1276081,263600,83.0,4.0,Appartement,76600,76,Le Havre
49.4958928,0.1276081,182700,50.0,2.0,Appartement,76600,76,Le Havre
49.4958928,0.1276081,176700,50.0,2.0,Appartement,76600,76,Le Havre
49.4958928,0.1276081,224194,58.0,3.0,Appartement,76600,76,Le Havre
49.4958928,0.1276081,227334,57.0,3.0,Appartement,76600,76,Le Havre
49.4958928,0.1276081,234917,61.0,3.0,Appartement,76600,76,Le Havre
49.8987005,2.272457,191700,79.0,3.0,Maison,80000,80,Amiens
49.8987005,2.272457,108000,40.7,2.0,Appartement,80000,80,Amiens
49.8987005,2.272457,177450,41.0,2.0,Appartement,80000,80,Amiens
49.8987005,2.272457,251000,66.0,3.0,Appartement,80000,80,Amiens
49.8987005,2.272457,271000,69.0,3.0,Appartement,80000,80,Amiens
49.8987005,2.272457,254000,66.0,3.0,Appartement,80000,80,Amiens
49.8987005,2.272457,177000,41.0,2.0,Appartement,80000,80,Amiens
49.8987005,2.272457,237000,62.0,3.0,Appartement,80000,80,Amiens
49.8987005,2.272457,183000,44.0,2.0,Appartement,80000,80,Amiens
49.8987005,2.272457,157500,42.0,2.0,Appartement,80000,80,Amiens
49.8987005,2.272457,1410000,420.0,12.0,Maison,80000,80,Amiens
49.8987005,2.272457,239000,77.0,4.0,Appartement,80000,80,Amiens
49.8987005,2.272457,215000,55.0,3.0,Appartement,80000,80,Amiens
49.8987005,2.272457,216000,68.5,3.0,Appartement,80000,80,Amiens
49.8987005,2.272457,234000,64.0,3.0,Appartement,80000,80,Amiens
49.8987005,2.272457,225000,60.0,3.0,Appartement,80000,80,Amiens
49.8987005,2.272457,633000,129.0,5.0,Maison,80000,80,Amiens
49.8987005,2.272457,220000,45.0,2.0,Appartement,80000,80,Amiens
49.8987005,2.272457,177000,41.0,2.0,Appartement,80000,80,Amiens
49.8987005,2.272457,228000,60.0,3.0,Appartement,80000,80,Amiens
49.8987005,2.272457,200000,48.0,2.0,Appartement,80000,80,Amiens
49.8987005,2.272457,229000,60.0,3.0,Appartement,80000,80,Amiens
49.8987005,2.272457,234000,65.0,3.0,Appartement,80000,80,Amiens
49.8987005,2.272457,227000,63.0,3.0,Appartement,80000,80,Amiens
49.8987005,2.272457,469500,100.0,4.0,Appartement,80000,80,Amiens
49.8987005,2.272457,238000,64.0,3.0,Appartement,80000,80,Amiens
49.8987005,2.272457,188000,43.0,2.0,Appartement,80000,80,Amiens
49.8987005,2.272457,220000,64.0,3.0,Appartement,80000,80,Amiens
49.8987005,2.272457,150000,41.0,2.0,Appartement,80000,80,Amiens
49.8987005,2.272457,488000,89.0,4.0,Appartement,80000,80,Amiens
49.8987005,2.272457,403000,72.0,3.0,Appartement,80000,80,Amiens
49.8987005,2.272457,645000,109.0,5.0,Appartement,80000,80,Amiens
49.8987005,2.272457,598000,150.0,4.0,Appartement,80000,80,Amiens
49.8987005,2.272457,185000,82.0,3.0,Appartement,80000,80,Amiens
49.8987005,2.272457,203000,79.0,4.0,Appartement,80000,80,Amiens
49.8987005,2.272457,202666,62.0,3.0,Appartement,80000,80,Amiens
49.8987005,2.272457,159958,43.0,2.0,Appartement,80000,80,Amiens
49.8987005,2.272457,201000,48.0,2.0,Appartement,80000,80,Amiens
49.8987005,2.272457,311000,80.0,4.0,Appartement,80000,80,Amiens
49.8987005,2.272457,217000,45.0,2.0,Appartement,80000,80,Amiens
49.8987005,2.272457,236000,55.0,3.0,Appartement,80000,80,Amiens
49.8987005,2.272457,252000,72.0,3.0,Appartement,80000,80,Amiens
49.8987005,2.272457,225000,59.0,3.0,Appartement,80000,80,Amiens
49.8987005,2.272457,181000,42.0,2.0,Appartement,80000,80,Amiens
49.8987005,2.272457,429500,95.0,4.0,Appartement,80000,80,Amiens
49.8987005,2.272457,284500,57.0,3.0,Appartement,80000,80,Amiens
49.8987005,2.272457,583000,115.0,5.0,Appartement,80000,80,Amiens
49.8987005,2.272457,380000,83.0,4.0,Appartement,80000,80,Amiens
49.8987005,2.272457,164000,33.0,2.0,Appartement,80000,80,Amiens
49.8987005,2.272457,231000,55.0,3.0,Appartement,80000,80,Amiens
49.8987005,2.272457,255000,76.0,4.0,Appartement,80000,80,Amiens
49.8987005,2.272457,177000,41.0,2.0,Appartement,80000,80,Amiens
49.8987005,2.272457,242000,63.0,3.0,Appartement,80000,80,Amiens
49.8987005,2.272457,355000,90.0,4.0,Appartement,80000,80,Amiens
43.6391219,1.4486548,291900,62.4,3.0,Appartement,31200,81,Toulouse
43.6316416,3.8651679,798000,162.9,6.0,Appartement,34090,81,Montpellier
43.5675736,1.3975057,216000,69.0,3.0,Appartement,31100,82,Toulouse
43.6036188,1.3886893,124400,25.8,1.0,Appartement,31300,82,Toulouse
43.5403693,5.522134,699000,125.1,5.0,Appartement,13100,83,Aix-en-Provence
43.3066116,5.3840371,795000,171.0,7.0,Appartement,13001,83,Marseille
43.2878999,5.3585612,155000,29.0,2.0,Appartement,13007,83,Marseille
43.5403693,5.522134,2990000,350.0,6.0,Maison,13100,84,Aix-en-Provence
47.4943373,-0.5508614,317500,107.0,5.0,Appartement,49100,86,Angers
47.4943373,-0.5508614,176550,73.0,3.0,Appartement,49100,86,Angers
48.5947274,7.7742476,215000,58.0,3.0,Appartement,67000,88,Strasbourg
48.5947274,7.7742476,304000,63.0,3.0,Appartement,67000,88,Strasbourg
48.8493765,2.3322544,399000,24.0,1.0,Appartement,75006,93,Paris
48.9334215,2.3624387,415000,81.0,4.0,Appartement,93200,93,Saint-Denis
48.9334215,2.3624387,357000,67.0,3.0,Appartement,93200,93,Saint-Denis
48.9334215,2.3624387,269000,46.0,2.0,Appartement,93200,93,Saint-Denis
48.8493765,2.3322544,380000,23.0,1.0,Appartement,75006,94,Paris
48.854928,2.2553299,785000,78.7,3.0,Appartement,75016,94,Paris
48.8869876,2.3830496,775000,91.0,4.0,Appartement,75019,94,Paris
48.8295441,2.3780048,870000,65.0,3.0,Appartement,75001,94,Paris
48.854909,2.3128667,1350000,83.7,3.0,Appartement,75007,94,Paris
-20.9022858,55.4815021,470000,165.0,5.0,Maison,97490,974,Saint-Denis
-20.8940223,55.4641732,360000,160.0,5.0,Maison,97417,974,Saint-Denis
-20.8940223,55.4641732,59350,20.0,1.0,Appartement,97400,974,Saint-Denis
-20.8940223,55.4641732,184000,60.0,3.0,Appartement,97400,974,Saint-Denis
-20.8940223,55.4641732,482000,139.0,5.0,Maison,97400,974,Saint-Denis
-20.8940223,55.4641732,294000,135.8,4.0,Appartement,97400,974,Saint-Denis
-20.8940223,55.4641732,1365000,130.0,6.0,Maison,97400,974,Saint-Denis
-20.8940223,55.4641732,346100,270.0,9.0,Maison,97400,974,Saint-Denis
-20.8940223,55.4641732,407300,133.0,5.0,Appartement,97400,974,Saint-Denis
-20.8940223,55.4641732,224000,46.0,2.0,Appartement,97400,974,Saint-Denis
-20.8940223,55.4641732,187250,77.4,3.0,Appartement,97400,974,Saint-Denis
-20.8940223,55.4641732,220000,72.0,3.0,Appartement,97400,974,Saint-Denis
-20.8940223,55.4641732,180000,43.0,2.0,Appartement,97400,974,Saint-Denis
-20.8940223,55.4641732,139520,63.0,3.0,Appartement,97400,974,Saint-Denis
-20.8940223,55.4641732,90000,48.0,2.0,Appartement,97400,974,Saint-Denis
